{
"type": "FeatureCollection",
"name": "chengdu_candidates",
"crs": { "type": "name", "properties": { "name": "urn:ogc:def:crs:OGC:1.3:CRS84" } },
"features": [
{ "type": "Feature", "properties": { "city": "chengdu", "candidate_source": "place_village_hamlet_locality", "id": "5248597537", "osm_type": "node", "place": "village", "landuse": "None", "residential": "None", "name": "None" }, "geometry": { "type": "Point", "coordinates": [ 103.831161499023438, 30.509143829345703 ] } },
{ "type": "Feature", "properties": { "city": "chengdu", "candidate_source": "place_village_hamlet_locality", "id": "5248597538", "osm_type": "node", "place": "village", "landuse": "None", "residential": "None", "name": "None" }, "geometry": { "type": "Point", "coordinates": [ 103.836143493652344, 30.514339447021484 ] } },
{ "type": "Feature", "properties": { "city": "chengdu", "candidate_source": "place_village_hamlet_locality", "id": "5248598115", "osm_type": "node", "place": "village", "landuse": "None", "residential": "None", "name": "None" }, "geometry": { "type": "Point", "coordinates": [ 103.837921142578125, 30.523040771484375 ] } },
{ "type": "Feature", "properties": { "city": "chengdu", "candidate_source": "place_village_hamlet_locality", "id": "5248597770", "osm_type": "node", "place": "village", "landuse": "None", "residential": "None", "name": "None" }, "geometry": { "type": "Point", "coordinates": [ 103.83941650390625, 30.534116744995117 ] } },
{ "type": "Feature", "properties": { "city": "chengdu", "candidate_source": "place_village_hamlet_locality", "id": "5248597867", "osm_type": "node", "place": "village", "landuse": "None", "residential": "None", "name": "None" }, "geometry": { "type": "Point", "coordinates": [ 103.85882568359375, 30.540853500366211 ] } },
{ "type": "Feature", "properties": { "city": "chengdu", "candidate_source": "place_village_hamlet_locality", "id": "5248597866", "osm_type": "node", "place": "village", "landuse": "None", "residential": "None", "name": "None" }, "geometry": { "type": "Point", "coordinates": [ 103.846611022949219, 30.541194915771484 ] } },
{ "type": "Feature", "properties": { "city": "chengdu", "candidate_source": "place_village_hamlet_locality", "id": "5225755875", "osm_type": "node", "place": "village", "landuse": "None", "residential": "None", "name": "None" }, "geometry": { "type": "Point", "coordinates": [ 103.984649658203125, 30.293645858764648 ] } },
{ "type": "Feature", "properties": { "city": "chengdu", "candidate_source": "place_village_hamlet_locality", "id": "12240953725", "osm_type": "node", "place": "locality", "landuse": "None", "residential": "None", "name": "None" }, "geometry": { "type": "Point", "coordinates": [ 104.225166320800781, 30.419622421264648 ] } },
{ "type": "Feature", "properties": { "city": "chengdu", "candidate_source": "place_village_hamlet_locality", "id": "12240911858", "osm_type": "node", "place": "locality", "landuse": "None", "residential": "None", "name": "None" }, "geometry": { "type": "Point", "coordinates": [ 104.22723388671875, 30.424350738525391 ] } },
{ "type": "Feature", "properties": { "city": "chengdu", "candidate_source": "place_village_hamlet_locality", "id": "11711442364", "osm_type": "node", "place": "locality", "landuse": "None", "residential": "None", "name": "None" }, "geometry": { "type": "Point", "coordinates": [ 104.202156066894531, 30.432764053344727 ] } },
{ "type": "Feature", "properties": { "city": "chengdu", "candidate_source": "place_village_hamlet_locality", "id": "13259783887", "osm_type": "node", "place": "hamlet", "landuse": "None", "residential": "None", "name": "None" }, "geometry": { "type": "Point", "coordinates": [ 104.120796203613281, 30.263595581054688 ] } },
{ "type": "Feature", "properties": { "city": "chengdu", "candidate_source": "place_village_hamlet_locality", "id": "13254287084", "osm_type": "node", "place": "hamlet", "landuse": "None", "residential": "None", "name": "None" }, "geometry": { "type": "Point", "coordinates": [ 104.125221252441406, 30.275672912597656 ] } },
{ "type": "Feature", "properties": { "city": "chengdu", "candidate_source": "residential_rural", "id": "1409228114", "osm_type": "way", "place": "None", "landuse": "residential", "residential": "rural", "name": "None" }, "geometry": { "type": "Polygon", "coordinates": [ [ [ 104.141815185546875, 30.324085235595703 ], [ 104.142074584960938, 30.323759078979492 ], [ 104.141693115234375, 30.323125839233398 ], [ 104.141609191894531, 30.32257080078125 ], [ 104.141342163085938, 30.321924209594727 ], [ 104.141143798828125, 30.321493148803711 ], [ 104.140762329101562, 30.321441650390625 ], [ 104.140106201171875, 30.320323944091797 ], [ 104.139381408691406, 30.319780349731445 ], [ 104.138847351074219, 30.319393157958984 ], [ 104.138191223144531, 30.319591522216797 ], [ 104.138450622558594, 30.320438385009766 ], [ 104.138511657714844, 30.320783615112305 ], [ 104.138908386230469, 30.321659088134766 ], [ 104.139205932617188, 30.322134017944336 ], [ 104.140121459960938, 30.322853088378906 ], [ 104.14044189453125, 30.323375701904297 ], [ 104.140708923339844, 30.323917388916016 ], [ 104.141273498535156, 30.324211120605469 ], [ 104.141815185546875, 30.324085235595703 ] ] ] } },
{ "type": "Feature", "properties": { "city": "chengdu", "candidate_source": "place_village_hamlet_locality", "id": "12306447485", "osm_type": "node", "place": "locality", "landuse": "None", "residential": "None", "name": "None" }, "geometry": { "type": "Point", "coordinates": [ 104.064590454101562, 30.329584121704102 ] } },
{ "type": "Feature", "properties": { "city": "chengdu", "candidate_source": "place_village_hamlet_locality", "id": "12306447484", "osm_type": "node", "place": "locality", "landuse": "None", "residential": "None", "name": "None" }, "geometry": { "type": "Point", "coordinates": [ 104.065933227539062, 30.330680847167969 ] } },
{ "type": "Feature", "properties": { "city": "chengdu", "candidate_source": "place_village_hamlet_locality", "id": "12306447483", "osm_type": "node", "place": "locality", "landuse": "None", "residential": "None", "name": "None" }, "geometry": { "type": "Point", "coordinates": [ 104.067329406738281, 30.333763122558594 ] } },
{ "type": "Feature", "properties": { "city": "chengdu", "candidate_source": "place_village_hamlet_locality", "id": "12956635256", "osm_type": "node", "place": "locality", "landuse": "None", "residential": "None", "name": "None" }, "geometry": { "type": "Point", "coordinates": [ 104.183219909667969, 30.390439987182617 ] } },
{ "type": "Feature", "properties": { "city": "chengdu", "candidate_source": "place_village_hamlet_locality", "id": "2277932771", "osm_type": "node", "place": "village", "landuse": "None", "residential": "None", "name": "None" }, "geometry": { "type": "Point", "coordinates": [ 104.173469543457031, 30.393695831298828 ] } },
{ "type": "Feature", "properties": { "city": "chengdu", "candidate_source": "place_village_hamlet_locality", "id": "12921635296", "osm_type": "node", "place": "hamlet", "landuse": "None", "residential": "None", "name": "None" }, "geometry": { "type": "Point", "coordinates": [ 104.176055908203125, 30.412242889404297 ] } },
{ "type": "Feature", "properties": { "city": "chengdu", "candidate_source": "residential_rural", "id": "1018547084", "osm_type": "way", "place": "None", "landuse": "residential", "residential": "rural", "name": "None" }, "geometry": { "type": "Polygon", "coordinates": [ [ [ 104.151023864746094, 30.429054260253906 ], [ 104.151199340820312, 30.429147720336914 ], [ 104.15142822265625, 30.429122924804688 ], [ 104.152381896972656, 30.428800582885742 ], [ 104.152801513671875, 30.428342819213867 ], [ 104.153106689453125, 30.428184509277344 ], [ 104.153213500976562, 30.427549362182617 ], [ 104.152809143066406, 30.427007675170898 ], [ 104.15252685546875, 30.426816940307617 ], [ 104.152153015136719, 30.426692962646484 ], [ 104.151084899902344, 30.427371978759766 ], [ 104.150199890136719, 30.427864074707031 ], [ 104.150154113769531, 30.427925109863281 ], [ 104.150833129882812, 30.42878532409668 ], [ 104.151023864746094, 30.429054260253906 ] ] ] } },
{ "type": "Feature", "properties": { "city": "chengdu", "candidate_source": "place_village_hamlet_locality", "id": "1946724608", "osm_type": "node", "place": "village", "landuse": "None", "residential": "None", "name": "None" }, "geometry": { "type": "Point", "coordinates": [ 103.974449157714844, 30.323970794677734 ] } },
{ "type": "Feature", "properties": { "city": "chengdu", "candidate_source": "place_village_hamlet_locality", "id": "5225755876", "osm_type": "node", "place": "village", "landuse": "None", "residential": "None", "name": "None" }, "geometry": { "type": "Point", "coordinates": [ 103.959930419921875, 30.325674057006836 ] } },
{ "type": "Feature", "properties": { "city": "chengdu", "candidate_source": "place_village_hamlet_locality", "id": "5225755874", "osm_type": "node", "place": "village", "landuse": "None", "residential": "None", "name": "None" }, "geometry": { "type": "Point", "coordinates": [ 103.98675537109375, 30.335582733154297 ] } },
{ "type": "Feature", "properties": { "city": "chengdu", "candidate_source": "place_village_hamlet_locality", "id": "5225755879", "osm_type": "node", "place": "village", "landuse": "None", "residential": "None", "name": "None" }, "geometry": { "type": "Point", "coordinates": [ 103.952980041503906, 30.347343444824219 ] } },
{ "type": "Feature", "properties": { "city": "chengdu", "candidate_source": "place_village_hamlet_locality", "id": "10651983185", "osm_type": "node", "place": "hamlet", "landuse": "None", "residential": "None", "name": "None" }, "geometry": { "type": "Point", "coordinates": [ 103.960174560546875, 30.357444763183594 ] } },
{ "type": "Feature", "properties": { "city": "chengdu", "candidate_source": "place_village_hamlet_locality", "id": "12960469872", "osm_type": "node", "place": "village", "landuse": "None", "residential": "None", "name": "None" }, "geometry": { "type": "Point", "coordinates": [ 103.964584350585938, 30.380144119262695 ] } },
{ "type": "Feature", "properties": { "city": "chengdu", "candidate_source": "place_village_hamlet_locality", "id": "5225755877", "osm_type": "node", "place": "village", "landuse": "None", "residential": "None", "name": "None" }, "geometry": { "type": "Point", "coordinates": [ 103.932464599609375, 30.387092590332031 ] } },
{ "type": "Feature", "properties": { "city": "chengdu", "candidate_source": "place_village_hamlet_locality", "id": "13232541955", "osm_type": "node", "place": "village", "landuse": "None", "residential": "None", "name": "None" }, "geometry": { "type": "Point", "coordinates": [ 103.978843688964844, 30.38792610168457 ] } },
{ "type": "Feature", "properties": { "city": "chengdu", "candidate_source": "place_village_hamlet_locality", "id": "10651983186", "osm_type": "node", "place": "hamlet", "landuse": "None", "residential": "None", "name": "None" }, "geometry": { "type": "Point", "coordinates": [ 103.961143493652344, 30.391592025756836 ] } },
{ "type": "Feature", "properties": { "city": "chengdu", "candidate_source": "place_village_hamlet_locality", "id": "11722183588", "osm_type": "node", "place": "locality", "landuse": "None", "residential": "None", "name": "None" }, "geometry": { "type": "Point", "coordinates": [ 104.039100646972656, 30.401123046875 ] } },
{ "type": "Feature", "properties": { "city": "chengdu", "candidate_source": "place_village_hamlet_locality", "id": "10651983187", "osm_type": "node", "place": "hamlet", "landuse": "None", "residential": "None", "name": "None" }, "geometry": { "type": "Point", "coordinates": [ 103.969093322753906, 30.403842926025391 ] } },
{ "type": "Feature", "properties": { "city": "chengdu", "candidate_source": "place_village_hamlet_locality", "id": "12104427263", "osm_type": "node", "place": "locality", "landuse": "None", "residential": "None", "name": "None" }, "geometry": { "type": "Point", "coordinates": [ 104.055885314941406, 30.461938858032227 ] } },
{ "type": "Feature", "properties": { "city": "chengdu", "candidate_source": "place_village_hamlet_locality", "id": "12246675984", "osm_type": "node", "place": "locality", "landuse": "None", "residential": "None", "name": "None" }, "geometry": { "type": "Point", "coordinates": [ 103.916786193847656, 30.49574089050293 ] } },
{ "type": "Feature", "properties": { "city": "chengdu", "candidate_source": "place_village_hamlet_locality", "id": "12246675980", "osm_type": "node", "place": "locality", "landuse": "None", "residential": "None", "name": "None" }, "geometry": { "type": "Point", "coordinates": [ 103.916885375976562, 30.496738433837891 ] } },
{ "type": "Feature", "properties": { "city": "chengdu", "candidate_source": "place_village_hamlet_locality", "id": "7655355806", "osm_type": "node", "place": "village", "landuse": "None", "residential": "None", "name": "None" }, "geometry": { "type": "Point", "coordinates": [ 103.9073486328125, 30.502580642700195 ] } },
{ "type": "Feature", "properties": { "city": "chengdu", "candidate_source": "place_village_hamlet_locality", "id": "12847211820", "osm_type": "node", "place": "locality", "landuse": "None", "residential": "None", "name": "None" }, "geometry": { "type": "Point", "coordinates": [ 104.052024841308594, 30.50762939453125 ] } },
{ "type": "Feature", "properties": { "city": "chengdu", "candidate_source": "place_village_hamlet_locality", "id": "5248598569", "osm_type": "node", "place": "village", "landuse": "None", "residential": "None", "name": "None" }, "geometry": { "type": "Point", "coordinates": [ 103.908241271972656, 30.519557952880859 ] } },
{ "type": "Feature", "properties": { "city": "chengdu", "candidate_source": "place_village_hamlet_locality", "id": "5209951098", "osm_type": "node", "place": "village", "landuse": "None", "residential": "None", "name": "None" }, "geometry": { "type": "Point", "coordinates": [ 104.183807373046875, 30.43409538269043 ] } },
{ "type": "Feature", "properties": { "city": "chengdu", "candidate_source": "place_village_hamlet_locality", "id": "3328192726", "osm_type": "node", "place": "village", "landuse": "None", "residential": "None", "name": "None" }, "geometry": { "type": "Point", "coordinates": [ 104.1759033203125, 30.448888778686523 ] } },
{ "type": "Feature", "properties": { "city": "chengdu", "candidate_source": "place_village_hamlet_locality", "id": "12635610644", "osm_type": "node", "place": "locality", "landuse": "None", "residential": "None", "name": "None" }, "geometry": { "type": "Point", "coordinates": [ 104.162193298339844, 30.454156875610352 ] } },
{ "type": "Feature", "properties": { "city": "chengdu", "candidate_source": "place_village_hamlet_locality", "id": "12119641511", "osm_type": "node", "place": "locality", "landuse": "None", "residential": "None", "name": "None" }, "geometry": { "type": "Point", "coordinates": [ 104.185493469238281, 30.455406188964844 ] } },
{ "type": "Feature", "properties": { "city": "chengdu", "candidate_source": "place_village_hamlet_locality", "id": "13321917717", "osm_type": "node", "place": "village", "landuse": "None", "residential": "None", "name": "None" }, "geometry": { "type": "Point", "coordinates": [ 104.159111022949219, 30.474384307861328 ] } },
{ "type": "Feature", "properties": { "city": "chengdu", "candidate_source": "place_village_hamlet_locality", "id": "3328192724", "osm_type": "node", "place": "village", "landuse": "None", "residential": "None", "name": "None" }, "geometry": { "type": "Point", "coordinates": [ 104.168846130371094, 30.480035781860352 ] } },
{ "type": "Feature", "properties": { "city": "chengdu", "candidate_source": "residential_rural", "id": "483068084", "osm_type": "way", "place": "None", "landuse": "residential", "residential": "rural", "name": "None" }, "geometry": { "type": "Polygon", "coordinates": [ [ [ 104.075492858886719, 30.486291885375977 ], [ 104.075508117675781, 30.485734939575195 ], [ 104.075538635253906, 30.484468460083008 ], [ 104.075553894042969, 30.483880996704102 ], [ 104.075630187988281, 30.480867385864258 ], [ 104.074531555175781, 30.48088264465332 ], [ 104.073158264160156, 30.480833053588867 ], [ 104.069747924804688, 30.480733871459961 ], [ 104.069648742675781, 30.484563827514648 ], [ 104.069282531738281, 30.484542846679688 ], [ 104.0692138671875, 30.486156463623047 ], [ 104.075492858886719, 30.486291885375977 ] ] ] } },
{ "type": "Feature", "properties": { "city": "chengdu", "candidate_source": "place_village_hamlet_locality", "id": "12635610645", "osm_type": "node", "place": "locality", "landuse": "None", "residential": "None", "name": "None" }, "geometry": { "type": "Point", "coordinates": [ 104.131553649902344, 30.485517501831055 ] } },
{ "type": "Feature", "properties": { "city": "chengdu", "candidate_source": "place_village_hamlet_locality", "id": "3328192727", "osm_type": "node", "place": "village", "landuse": "None", "residential": "None", "name": "None" }, "geometry": { "type": "Point", "coordinates": [ 104.136329650878906, 30.507417678833008 ] } },
{ "type": "Feature", "properties": { "city": "chengdu", "candidate_source": "place_village_hamlet_locality", "id": "3328192723", "osm_type": "node", "place": "village", "landuse": "None", "residential": "None", "name": "None" }, "geometry": { "type": "Point", "coordinates": [ 104.167045593261719, 30.518209457397461 ] } },
{ "type": "Feature", "properties": { "city": "chengdu", "candidate_source": "place_village_hamlet_locality", "id": "12625924643", "osm_type": "node", "place": "village", "landuse": "None", "residential": "None", "name": "None" }, "geometry": { "type": "Point", "coordinates": [ 104.221694946289062, 30.463479995727539 ] } },
{ "type": "Feature", "properties": { "city": "chengdu", "candidate_source": "residential_rural", "id": "1010173892", "osm_type": "way", "place": "None", "landuse": "residential", "residential": "rural", "name": "None" }, "geometry": { "type": "Polygon", "coordinates": [ [ [ 104.213813781738281, 30.464921951293945 ], [ 104.214302062988281, 30.464927673339844 ], [ 104.214889526367188, 30.464826583862305 ], [ 104.214073181152344, 30.463047027587891 ], [ 104.21405029296875, 30.462854385375977 ], [ 104.21392822265625, 30.462831497192383 ], [ 104.213607788085938, 30.462875366210938 ], [ 104.213333129882812, 30.464555740356445 ], [ 104.213447570800781, 30.464838027954102 ], [ 104.213813781738281, 30.464921951293945 ] ] ] } },
{ "type": "Feature", "properties": { "city": "chengdu", "candidate_source": "place_village_hamlet_locality", "id": "12635610634", "osm_type": "node", "place": "locality", "landuse": "None", "residential": "None", "name": "None" }, "geometry": { "type": "Point", "coordinates": [ 104.191230773925781, 30.464723587036133 ] } },
{ "type": "Feature", "properties": { "city": "chengdu", "candidate_source": "place_village_hamlet_locality", "id": "12625924642", "osm_type": "node", "place": "hamlet", "landuse": "None", "residential": "None", "name": "None" }, "geometry": { "type": "Point", "coordinates": [ 104.219779968261719, 30.464946746826172 ] } },
{ "type": "Feature", "properties": { "city": "chengdu", "candidate_source": "place_village_hamlet_locality", "id": "3328192725", "osm_type": "node", "place": "village", "landuse": "None", "residential": "None", "name": "None" }, "geometry": { "type": "Point", "coordinates": [ 104.122726440429688, 30.521476745605469 ] } },
{ "type": "Feature", "properties": { "city": "chengdu", "candidate_source": "place_village_hamlet_locality", "id": "11550432004", "osm_type": "node", "place": "village", "landuse": "None", "residential": "None", "name": "None" }, "geometry": { "type": "Point", "coordinates": [ 104.168815612792969, 30.546388626098633 ] } },
{ "type": "Feature", "properties": { "city": "chengdu", "candidate_source": "place_village_hamlet_locality", "id": "12828284418", "osm_type": "node", "place": "locality", "landuse": "None", "residential": "None", "name": "None" }, "geometry": { "type": "Point", "coordinates": [ 104.1121826171875, 30.625408172607422 ] } },
{ "type": "Feature", "properties": { "city": "chengdu", "candidate_source": "place_village_hamlet_locality", "id": "7619523047", "osm_type": "node", "place": "hamlet", "landuse": "None", "residential": "None", "name": "None" }, "geometry": { "type": "Point", "coordinates": [ 104.057060241699219, 30.654073715209961 ] } },
{ "type": "Feature", "properties": { "city": "chengdu", "candidate_source": "residential_rural", "id": "1476345622", "osm_type": "way", "place": "None", "landuse": "construction", "residential": "rural", "name": "None" }, "geometry": { "type": "Polygon", "coordinates": [ [ [ 104.142448425292969, 30.661626815795898 ], [ 104.143020629882812, 30.662237167358398 ], [ 104.146095275878906, 30.661121368408203 ], [ 104.145851135253906, 30.660037994384766 ], [ 104.143135070800781, 30.660829544067383 ], [ 104.142021179199219, 30.661169052124023 ], [ 104.142448425292969, 30.661626815795898 ] ] ] } },
{ "type": "Feature", "properties": { "city": "chengdu", "candidate_source": "place_village_hamlet_locality", "id": "1958204366", "osm_type": "node", "place": "locality", "landuse": "None", "residential": "None", "name": "None" }, "geometry": { "type": "Point", "coordinates": [ 104.090919494628906, 30.665592193603516 ] } },
{ "type": "Feature", "properties": { "city": "chengdu", "candidate_source": "place_village_hamlet_locality", "id": "1958204209", "osm_type": "node", "place": "locality", "landuse": "None", "residential": "None", "name": "None" }, "geometry": { "type": "Point", "coordinates": [ 104.082275390625, 30.668630599975586 ] } },
{ "type": "Feature", "properties": { "city": "chengdu", "candidate_source": "place_village_hamlet_locality", "id": "1958204202", "osm_type": "node", "place": "locality", "landuse": "None", "residential": "None", "name": "None" }, "geometry": { "type": "Point", "coordinates": [ 104.079872131347656, 30.669031143188477 ] } },
{ "type": "Feature", "properties": { "city": "chengdu", "candidate_source": "place_village_hamlet_locality", "id": "7248336070", "osm_type": "node", "place": "locality", "landuse": "None", "residential": "None", "name": "None" }, "geometry": { "type": "Point", "coordinates": [ 103.955207824707031, 30.576417922973633 ] } },
{ "type": "Feature", "properties": { "city": "chengdu", "candidate_source": "place_village_hamlet_locality", "id": "10177891172", "osm_type": "node", "place": "locality", "landuse": "None", "residential": "None", "name": "None" }, "geometry": { "type": "Point", "coordinates": [ 103.990859985351562, 30.599176406860352 ] } },
{ "type": "Feature", "properties": { "city": "chengdu", "candidate_source": "place_village_hamlet_locality", "id": "13232442065", "osm_type": "node", "place": "locality", "landuse": "None", "residential": "None", "name": "None" }, "geometry": { "type": "Point", "coordinates": [ 103.877693176269531, 30.615039825439453 ] } },
{ "type": "Feature", "properties": { "city": "chengdu", "candidate_source": "place_village_hamlet_locality", "id": "8013476767", "osm_type": "node", "place": "village", "landuse": "None", "residential": "None", "name": "None" }, "geometry": { "type": "Point", "coordinates": [ 104.052169799804688, 30.626907348632812 ] } },
{ "type": "Feature", "properties": { "city": "chengdu", "candidate_source": "place_village_hamlet_locality", "id": "4782097639", "osm_type": "node", "place": "village", "landuse": "None", "residential": "None", "name": "None" }, "geometry": { "type": "Point", "coordinates": [ 103.901298522949219, 30.664974212646484 ] } },
{ "type": "Feature", "properties": { "city": "chengdu", "candidate_source": "place_village_hamlet_locality", "id": "11687802533", "osm_type": "node", "place": "locality", "landuse": "None", "residential": "None", "name": "None" }, "geometry": { "type": "Point", "coordinates": [ 104.010589599609375, 30.682126998901367 ] } },
{ "type": "Feature", "properties": { "city": "chengdu", "candidate_source": "place_village_hamlet_locality", "id": "11687802526", "osm_type": "node", "place": "locality", "landuse": "None", "residential": "None", "name": "None" }, "geometry": { "type": "Point", "coordinates": [ 104.008583068847656, 30.683437347412109 ] } },
{ "type": "Feature", "properties": { "city": "chengdu", "candidate_source": "place_village_hamlet_locality", "id": "7544310701", "osm_type": "node", "place": "hamlet", "landuse": "None", "residential": "None", "name": "None" }, "geometry": { "type": "Point", "coordinates": [ 103.984825134277344, 30.692926406860352 ] } },
{ "type": "Feature", "properties": { "city": "chengdu", "candidate_source": "place_village_hamlet_locality", "id": "7544310741", "osm_type": "node", "place": "hamlet", "landuse": "None", "residential": "None", "name": "None" }, "geometry": { "type": "Point", "coordinates": [ 103.996917724609375, 30.698909759521484 ] } },
{ "type": "Feature", "properties": { "city": "chengdu", "candidate_source": "place_village_hamlet_locality", "id": "8440197500", "osm_type": "node", "place": "locality", "landuse": "None", "residential": "None", "name": "None" }, "geometry": { "type": "Point", "coordinates": [ 103.965629577636719, 30.730218887329102 ] } },
{ "type": "Feature", "properties": { "city": "chengdu", "candidate_source": "place_village_hamlet_locality", "id": "10574999750", "osm_type": "node", "place": "hamlet", "landuse": "None", "residential": "None", "name": "None" }, "geometry": { "type": "Point", "coordinates": [ 104.217353820800781, 30.775001525878906 ] } },
{ "type": "Feature", "properties": { "city": "chengdu", "candidate_source": "place_village_hamlet_locality", "id": "5171350749", "osm_type": "node", "place": "village", "landuse": "None", "residential": "None", "name": "None" }, "geometry": { "type": "Point", "coordinates": [ 104.194129943847656, 30.78727912902832 ] } },
{ "type": "Feature", "properties": { "city": "chengdu", "candidate_source": "place_village_hamlet_locality", "id": "5248597971", "osm_type": "node", "place": "village", "landuse": "None", "residential": "None", "name": "None" }, "geometry": { "type": "Point", "coordinates": [ 103.830795288085938, 30.545438766479492 ] } },
{ "type": "Feature", "properties": { "city": "chengdu", "candidate_source": "place_village_hamlet_locality", "id": "5248597820", "osm_type": "node", "place": "village", "landuse": "None", "residential": "None", "name": "None" }, "geometry": { "type": "Point", "coordinates": [ 103.847610473632812, 30.547626495361328 ] } },
{ "type": "Feature", "properties": { "city": "chengdu", "candidate_source": "place_village_hamlet_locality", "id": "5248597819", "osm_type": "node", "place": "hamlet", "landuse": "None", "residential": "None", "name": "None" }, "geometry": { "type": "Point", "coordinates": [ 103.847740173339844, 30.555442810058594 ] } },
{ "type": "Feature", "properties": { "city": "chengdu", "candidate_source": "place_village_hamlet_locality", "id": "5375734955", "osm_type": "node", "place": "village", "landuse": "None", "residential": "None", "name": "None" }, "geometry": { "type": "Point", "coordinates": [ 103.850296020507812, 30.657821655273438 ] } },
{ "type": "Feature", "properties": { "city": "chengdu", "candidate_source": "place_village_hamlet_locality", "id": "9928340207", "osm_type": "node", "place": "village", "landuse": "None", "residential": "None", "name": "None" }, "geometry": { "type": "Point", "coordinates": [ 103.859687805175781, 30.728761672973633 ] } },
{ "type": "Feature", "properties": { "city": "chengdu", "candidate_source": "place_village_hamlet_locality", "id": "9928340198", "osm_type": "node", "place": "village", "landuse": "None", "residential": "None", "name": "None" }, "geometry": { "type": "Point", "coordinates": [ 103.808197021484375, 30.733432769775391 ] } },
{ "type": "Feature", "properties": { "city": "chengdu", "candidate_source": "place_village_hamlet_locality", "id": "9928340206", "osm_type": "node", "place": "village", "landuse": "None", "residential": "None", "name": "None" }, "geometry": { "type": "Point", "coordinates": [ 103.848365783691406, 30.740547180175781 ] } },
{ "type": "Feature", "properties": { "city": "chengdu", "candidate_source": "place_village_hamlet_locality", "id": "9928340199", "osm_type": "node", "place": "village", "landuse": "None", "residential": "None", "name": "None" }, "geometry": { "type": "Point", "coordinates": [ 103.809501647949219, 30.743730545043945 ] } },
{ "type": "Feature", "properties": { "city": "chengdu", "candidate_source": "place_village_hamlet_locality", "id": "9928340204", "osm_type": "node", "place": "village", "landuse": "None", "residential": "None", "name": "None" }, "geometry": { "type": "Point", "coordinates": [ 103.841621398925781, 30.756744384765625 ] } },
{ "type": "Feature", "properties": { "city": "chengdu", "candidate_source": "place_village_hamlet_locality", "id": "13660442508", "osm_type": "node", "place": "hamlet", "landuse": "None", "residential": "None", "name": "None" }, "geometry": { "type": "Point", "coordinates": [ 103.861404418945312, 30.757293701171875 ] } },
{ "type": "Feature", "properties": { "city": "chengdu", "candidate_source": "residential_rural", "id": "1391812855", "osm_type": "way", "place": "None", "landuse": "residential", "residential": "rural", "name": "None" }, "geometry": { "type": "Polygon", "coordinates": [ [ [ 103.765579223632812, 30.678583145141602 ], [ 103.765892028808594, 30.678695678710938 ], [ 103.765945434570312, 30.678594589233398 ], [ 103.766311645507812, 30.67872428894043 ], [ 103.766426086425781, 30.678478240966797 ], [ 103.76666259765625, 30.678562164306641 ], [ 103.767066955566406, 30.677713394165039 ], [ 103.766868591308594, 30.677642822265625 ], [ 103.766807556152344, 30.677522659301758 ], [ 103.76666259765625, 30.677482604980469 ], [ 103.766349792480469, 30.677471160888672 ], [ 103.766349792480469, 30.677518844604492 ], [ 103.766098022460938, 30.677511215209961 ], [ 103.765579223632812, 30.678583145141602 ] ] ] } },
{ "type": "Feature", "properties": { "city": "chengdu", "candidate_source": "place_village_hamlet_locality", "id": "9928340205", "osm_type": "node", "place": "village", "landuse": "None", "residential": "None", "name": "None" }, "geometry": { "type": "Point", "coordinates": [ 103.793663024902344, 30.756256103515625 ] } },
{ "type": "Feature", "properties": { "city": "chengdu", "candidate_source": "place_village_hamlet_locality", "id": "9928340203", "osm_type": "node", "place": "village", "landuse": "None", "residential": "None", "name": "None" }, "geometry": { "type": "Point", "coordinates": [ 103.789749145507812, 30.764919281005859 ] } },
{ "type": "Feature", "properties": { "city": "chengdu", "candidate_source": "place_village_hamlet_locality", "id": "12237636963", "osm_type": "node", "place": "locality", "landuse": "None", "residential": "None", "name": "None" }, "geometry": { "type": "Point", "coordinates": [ 103.739768981933594, 30.768367767333984 ] } },
{ "type": "Feature", "properties": { "city": "chengdu", "candidate_source": "place_village_hamlet_locality", "id": "9928340197", "osm_type": "node", "place": "village", "landuse": "None", "residential": "None", "name": "None" }, "geometry": { "type": "Point", "coordinates": [ 103.746231079101562, 30.781885147094727 ] } },
{ "type": "Feature", "properties": { "city": "chengdu", "candidate_source": "place_village_hamlet_locality", "id": "10615460330", "osm_type": "node", "place": "village", "landuse": "None", "residential": "None", "name": "None" }, "geometry": { "type": "Point", "coordinates": [ 103.709739685058594, 30.831874847412109 ] } },
{ "type": "Feature", "properties": { "city": "chengdu", "candidate_source": "place_village_hamlet_locality", "id": "9928340208", "osm_type": "node", "place": "village", "landuse": "None", "residential": "None", "name": "None" }, "geometry": { "type": "Point", "coordinates": [ 103.804542541503906, 30.77192497253418 ] } },
{ "type": "Feature", "properties": { "city": "chengdu", "candidate_source": "place_village_hamlet_locality", "id": "11687734699", "osm_type": "node", "place": "locality", "landuse": "None", "residential": "None", "name": "None" }, "geometry": { "type": "Point", "coordinates": [ 103.850860595703125, 30.794414520263672 ] } },
{ "type": "Feature", "properties": { "city": "chengdu", "candidate_source": "place_village_hamlet_locality", "id": "11687713254", "osm_type": "node", "place": "locality", "landuse": "None", "residential": "None", "name": "None" }, "geometry": { "type": "Point", "coordinates": [ 103.852569580078125, 30.796518325805664 ] } },
{ "type": "Feature", "properties": { "city": "chengdu", "candidate_source": "place_village_hamlet_locality", "id": "9776949880", "osm_type": "node", "place": "village", "landuse": "None", "residential": "None", "name": "None" }, "geometry": { "type": "Point", "coordinates": [ 103.821731567382812, 30.855146408081055 ] } },
{ "type": "Feature", "properties": { "city": "chengdu", "candidate_source": "place_village_hamlet_locality", "id": "5453817099", "osm_type": "node", "place": "village", "landuse": "None", "residential": "None", "name": "None" }, "geometry": { "type": "Point", "coordinates": [ 103.842514038085938, 30.858501434326172 ] } },
{ "type": "Feature", "properties": { "city": "chengdu", "candidate_source": "place_village_hamlet_locality", "id": "8018687293", "osm_type": "node", "place": "locality", "landuse": "None", "residential": "None", "name": "None" }, "geometry": { "type": "Point", "coordinates": [ 103.820655822753906, 30.862409591674805 ] } },
{ "type": "Feature", "properties": { "city": "chengdu", "candidate_source": "place_village_hamlet_locality", "id": "5454149452", "osm_type": "node", "place": "village", "landuse": "None", "residential": "None", "name": "None" }, "geometry": { "type": "Point", "coordinates": [ 103.811683654785156, 30.902507781982422 ] } },
{ "type": "Feature", "properties": { "city": "chengdu", "candidate_source": "place_village_hamlet_locality", "id": "4469917836", "osm_type": "node", "place": "village", "landuse": "None", "residential": "None", "name": "None" }, "geometry": { "type": "Point", "coordinates": [ 103.82037353515625, 30.907665252685547 ] } },
{ "type": "Feature", "properties": { "city": "chengdu", "candidate_source": "place_village_hamlet_locality", "id": "9928340202", "osm_type": "node", "place": "village", "landuse": "None", "residential": "None", "name": "None" }, "geometry": { "type": "Point", "coordinates": [ 103.773101806640625, 30.779325485229492 ] } },
{ "type": "Feature", "properties": { "city": "chengdu", "candidate_source": "place_village_hamlet_locality", "id": "5453817307", "osm_type": "node", "place": "village", "landuse": "None", "residential": "None", "name": "None" }, "geometry": { "type": "Point", "coordinates": [ 103.79443359375, 30.874530792236328 ] } },
{ "type": "Feature", "properties": { "city": "chengdu", "candidate_source": "place_village_hamlet_locality", "id": "5462525313", "osm_type": "node", "place": "hamlet", "landuse": "None", "residential": "None", "name": "None" }, "geometry": { "type": "Point", "coordinates": [ 103.796371459960938, 30.890445709228516 ] } },
{ "type": "Feature", "properties": { "city": "chengdu", "candidate_source": "place_village_hamlet_locality", "id": "9776949888", "osm_type": "node", "place": "village", "landuse": "None", "residential": "None", "name": "None" }, "geometry": { "type": "Point", "coordinates": [ 103.768501281738281, 30.892841339111328 ] } },
{ "type": "Feature", "properties": { "city": "chengdu", "candidate_source": "place_village_hamlet_locality", "id": "5454111657", "osm_type": "node", "place": "locality", "landuse": "None", "residential": "None", "name": "None" }, "geometry": { "type": "Point", "coordinates": [ 103.762214660644531, 30.907535552978516 ] } },
{ "type": "Feature", "properties": { "city": "chengdu", "candidate_source": "place_village_hamlet_locality", "id": "13013257705", "osm_type": "node", "place": "village", "landuse": "None", "residential": "None", "name": "None" }, "geometry": { "type": "Point", "coordinates": [ 103.802154541015625, 30.935787200927734 ] } },
{ "type": "Feature", "properties": { "city": "chengdu", "candidate_source": "place_village_hamlet_locality", "id": "11003069801", "osm_type": "node", "place": "locality", "landuse": "None", "residential": "None", "name": "None" }, "geometry": { "type": "Point", "coordinates": [ 103.794715881347656, 30.941171646118164 ] } },
{ "type": "Feature", "properties": { "city": "chengdu", "candidate_source": "place_village_hamlet_locality", "id": "13013247438", "osm_type": "node", "place": "village", "landuse": "None", "residential": "None", "name": "None" }, "geometry": { "type": "Point", "coordinates": [ 103.79229736328125, 30.941547393798828 ] } },
{ "type": "Feature", "properties": { "city": "chengdu", "candidate_source": "place_village_hamlet_locality", "id": "13013257704", "osm_type": "node", "place": "village", "landuse": "None", "residential": "None", "name": "None" }, "geometry": { "type": "Point", "coordinates": [ 103.774375915527344, 30.95024299621582 ] } },
{ "type": "Feature", "properties": { "city": "chengdu", "candidate_source": "place_village_hamlet_locality", "id": "1958204372", "osm_type": "node", "place": "locality", "landuse": "None", "residential": "None", "name": "None" }, "geometry": { "type": "Point", "coordinates": [ 104.094497680664062, 30.670351028442383 ] } },
{ "type": "Feature", "properties": { "city": "chengdu", "candidate_source": "place_village_hamlet_locality", "id": "324900607", "osm_type": "way", "place": "locality", "landuse": "None", "residential": "None", "name": "None" }, "geometry": { "type": "Polygon", "coordinates": [ [ [ 104.077682495117188, 30.672502517700195 ], [ 104.07720947265625, 30.672731399536133 ], [ 104.077407836914062, 30.673042297363281 ], [ 104.077880859375, 30.672813415527344 ], [ 104.077682495117188, 30.672502517700195 ] ] ] } },
{ "type": "Feature", "properties": { "city": "chengdu", "candidate_source": "place_village_hamlet_locality", "id": "10574999748", "osm_type": "node", "place": "hamlet", "landuse": "None", "residential": "None", "name": "None" }, "geometry": { "type": "Point", "coordinates": [ 104.170867919921875, 30.721019744873047 ] } },
{ "type": "Feature", "properties": { "city": "chengdu", "candidate_source": "place_village_hamlet_locality", "id": "10574999749", "osm_type": "node", "place": "hamlet", "landuse": "None", "residential": "None", "name": "None" }, "geometry": { "type": "Point", "coordinates": [ 104.180061340332031, 30.726884841918945 ] } },
{ "type": "Feature", "properties": { "city": "chengdu", "candidate_source": "place_village_hamlet_locality", "id": "12030514891", "osm_type": "node", "place": "locality", "landuse": "None", "residential": "None", "name": "None" }, "geometry": { "type": "Point", "coordinates": [ 104.167137145996094, 30.758243560791016 ] } },
{ "type": "Feature", "properties": { "city": "chengdu", "candidate_source": "place_village_hamlet_locality", "id": "5181200595", "osm_type": "node", "place": "village", "landuse": "None", "residential": "None", "name": "None" }, "geometry": { "type": "Point", "coordinates": [ 104.182891845703125, 30.769617080688477 ] } },
{ "type": "Feature", "properties": { "city": "chengdu", "candidate_source": "place_village_hamlet_locality", "id": "5181200597", "osm_type": "node", "place": "village", "landuse": "None", "residential": "None", "name": "None" }, "geometry": { "type": "Point", "coordinates": [ 104.182472229003906, 30.772239685058594 ] } },
{ "type": "Feature", "properties": { "city": "chengdu", "candidate_source": "place_village_hamlet_locality", "id": "5983605706", "osm_type": "node", "place": "hamlet", "landuse": "None", "residential": "None", "name": "None" }, "geometry": { "type": "Point", "coordinates": [ 104.179153442382812, 30.776130676269531 ] } },
{ "type": "Feature", "properties": { "city": "chengdu", "candidate_source": "place_village_hamlet_locality", "id": "5302768322", "osm_type": "node", "place": "village", "landuse": "None", "residential": "None", "name": "None" }, "geometry": { "type": "Point", "coordinates": [ 104.1883544921875, 30.776144027709961 ] } },
{ "type": "Feature", "properties": { "city": "chengdu", "candidate_source": "place_village_hamlet_locality", "id": "5304474244", "osm_type": "node", "place": "village", "landuse": "None", "residential": "None", "name": "None" }, "geometry": { "type": "Point", "coordinates": [ 104.100982666015625, 30.815282821655273 ] } },
{ "type": "Feature", "properties": { "city": "chengdu", "candidate_source": "place_village_hamlet_locality", "id": "5172252002", "osm_type": "node", "place": "village", "landuse": "None", "residential": "None", "name": "None" }, "geometry": { "type": "Point", "coordinates": [ 104.216461181640625, 30.797609329223633 ] } },
{ "type": "Feature", "properties": { "city": "chengdu", "candidate_source": "place_village_hamlet_locality", "id": "8440197499", "osm_type": "node", "place": "locality", "landuse": "None", "residential": "None", "name": "None" }, "geometry": { "type": "Point", "coordinates": [ 103.960731506347656, 30.732131958007812 ] } },
{ "type": "Feature", "properties": { "city": "chengdu", "candidate_source": "place_village_hamlet_locality", "id": "4150911423", "osm_type": "node", "place": "locality", "landuse": "None", "residential": "None", "name": "None" }, "geometry": { "type": "Point", "coordinates": [ 103.984596252441406, 30.76243782043457 ] } },
{ "type": "Feature", "properties": { "city": "chengdu", "candidate_source": "place_village_hamlet_locality", "id": "6555274020", "osm_type": "node", "place": "village", "landuse": "None", "residential": "None", "name": "None" }, "geometry": { "type": "Point", "coordinates": [ 103.991722106933594, 30.762790679931641 ] } },
{ "type": "Feature", "properties": { "city": "chengdu", "candidate_source": "place_village_hamlet_locality", "id": "11687736604", "osm_type": "node", "place": "locality", "landuse": "None", "residential": "None", "name": "None" }, "geometry": { "type": "Point", "coordinates": [ 103.87310791015625, 30.812593460083008 ] } },
{ "type": "Feature", "properties": { "city": "chengdu", "candidate_source": "place_village_hamlet_locality", "id": "9776949887", "osm_type": "node", "place": "village", "landuse": "None", "residential": "None", "name": "None" }, "geometry": { "type": "Point", "coordinates": [ 103.897483825683594, 30.831161499023438 ] } },
{ "type": "Feature", "properties": { "city": "chengdu", "candidate_source": "place_village_hamlet_locality", "id": "6000889776", "osm_type": "node", "place": "hamlet", "landuse": "None", "residential": "None", "name": "None" }, "geometry": { "type": "Point", "coordinates": [ 104.046531677246094, 30.856197357177734 ] } },
{ "type": "Feature", "properties": { "city": "chengdu", "candidate_source": "place_village_hamlet_locality", "id": "6000889778", "osm_type": "node", "place": "hamlet", "landuse": "None", "residential": "None", "name": "None" }, "geometry": { "type": "Point", "coordinates": [ 104.034164428710938, 30.861709594726562 ] } },
{ "type": "Feature", "properties": { "city": "chengdu", "candidate_source": "place_village_hamlet_locality", "id": "6003164525", "osm_type": "node", "place": "village", "landuse": "None", "residential": "None", "name": "None" }, "geometry": { "type": "Point", "coordinates": [ 103.988044738769531, 30.916986465454102 ] } },
{ "type": "Feature", "properties": { "city": "chengdu", "candidate_source": "place_village_hamlet_locality", "id": "5498271783", "osm_type": "node", "place": "village", "landuse": "None", "residential": "None", "name": "None" }, "geometry": { "type": "Point", "coordinates": [ 104.100433349609375, 30.825763702392578 ] } },
{ "type": "Feature", "properties": { "city": "chengdu", "candidate_source": "place_village_hamlet_locality", "id": "5429152323", "osm_type": "node", "place": "hamlet", "landuse": "None", "residential": "None", "name": "None" }, "geometry": { "type": "Point", "coordinates": [ 104.077827453613281, 30.826137542724609 ] } },
{ "type": "Feature", "properties": { "city": "chengdu", "candidate_source": "place_village_hamlet_locality", "id": "5997382442", "osm_type": "node", "place": "hamlet", "landuse": "None", "residential": "None", "name": "None" }, "geometry": { "type": "Point", "coordinates": [ 104.063011169433594, 30.828998565673828 ] } },
{ "type": "Feature", "properties": { "city": "chengdu", "candidate_source": "place_village_hamlet_locality", "id": "5221030261", "osm_type": "node", "place": "village", "landuse": "None", "residential": "None", "name": "None" }, "geometry": { "type": "Point", "coordinates": [ 104.106369018554688, 30.830476760864258 ] } },
{ "type": "Feature", "properties": { "city": "chengdu", "candidate_source": "place_village_hamlet_locality", "id": "5429152328", "osm_type": "node", "place": "village", "landuse": "None", "residential": "None", "name": "None" }, "geometry": { "type": "Point", "coordinates": [ 104.075813293457031, 30.831390380859375 ] } },
{ "type": "Feature", "properties": { "city": "chengdu", "candidate_source": "place_village_hamlet_locality", "id": "6119676842", "osm_type": "node", "place": "village", "landuse": "None", "residential": "None", "name": "None" }, "geometry": { "type": "Point", "coordinates": [ 104.188728332519531, 30.853279113769531 ] } },
{ "type": "Feature", "properties": { "city": "chengdu", "candidate_source": "place_village_hamlet_locality", "id": "13429643563", "osm_type": "node", "place": "village", "landuse": "None", "residential": "None", "name": "None" }, "geometry": { "type": "Point", "coordinates": [ 104.143608093261719, 30.886713027954102 ] } },
{ "type": "Feature", "properties": { "city": "chengdu", "candidate_source": "place_village_hamlet_locality", "id": "13429643576", "osm_type": "node", "place": "hamlet", "landuse": "None", "residential": "None", "name": "None" }, "geometry": { "type": "Point", "coordinates": [ 104.147857666015625, 30.899986267089844 ] } },
{ "type": "Feature", "properties": { "city": "chengdu", "candidate_source": "place_village_hamlet_locality", "id": "6119676843", "osm_type": "node", "place": "village", "landuse": "None", "residential": "None", "name": "None" }, "geometry": { "type": "Point", "coordinates": [ 104.190452575683594, 30.860610961914062 ] } }
]
}
