{
"type": "FeatureCollection",
"name": "chongqing_candidates",
"crs": { "type": "name", "properties": { "name": "urn:ogc:def:crs:OGC:1.3:CRS84" } },
"features": [
{ "type": "Feature", "properties": { "city": "chongqing", "candidate_source": "place_village_hamlet_locality", "id": "8761495101", "osm_type": "node", "place": "hamlet", "landuse": "None", "residential": "None", "name": "None" }, "geometry": { "type": "Point", "coordinates": [ 106.680976867675781, 29.486570358276367 ] } },
{ "type": "Feature", "properties": { "city": "chongqing", "candidate_source": "place_village_hamlet_locality", "id": "8761489869", "osm_type": "node", "place": "hamlet", "landuse": "None", "residential": "None", "name": "None" }, "geometry": { "type": "Point", "coordinates": [ 106.679367065429688, 29.497533798217773 ] } },
{ "type": "Feature", "properties": { "city": "chongqing", "candidate_source": "place_village_hamlet_locality", "id": "8761467057", "osm_type": "node", "place": "hamlet", "landuse": "None", "residential": "None", "name": "None" }, "geometry": { "type": "Point", "coordinates": [ 106.67108154296875, 29.507816314697266 ] } },
{ "type": "Feature", "properties": { "city": "chongqing", "candidate_source": "place_village_hamlet_locality", "id": "8795904887", "osm_type": "node", "place": "village", "landuse": "None", "residential": "None", "name": "None" }, "geometry": { "type": "Point", "coordinates": [ 106.604232788085938, 29.541021347045898 ] } },
{ "type": "Feature", "properties": { "city": "chongqing", "candidate_source": "place_village_hamlet_locality", "id": "12041832052", "osm_type": "node", "place": "locality", "landuse": "None", "residential": "None", "name": "None" }, "geometry": { "type": "Point", "coordinates": [ 106.685150146484375, 29.543621063232422 ] } },
{ "type": "Feature", "properties": { "city": "chongqing", "candidate_source": "place_village_hamlet_locality", "id": "9736185453", "osm_type": "node", "place": "village", "landuse": "None", "residential": "None", "name": "None" }, "geometry": { "type": "Point", "coordinates": [ 106.350563049316406, 29.377067565917969 ] } },
{ "type": "Feature", "properties": { "city": "chongqing", "candidate_source": "place_village_hamlet_locality", "id": "9736185455", "osm_type": "node", "place": "village", "landuse": "None", "residential": "None", "name": "None" }, "geometry": { "type": "Point", "coordinates": [ 106.390228271484375, 29.379878997802734 ] } },
{ "type": "Feature", "properties": { "city": "chongqing", "candidate_source": "place_village_hamlet_locality", "id": "9736185452", "osm_type": "node", "place": "village", "landuse": "None", "residential": "None", "name": "None" }, "geometry": { "type": "Point", "coordinates": [ 106.36029052734375, 29.382297515869141 ] } },
{ "type": "Feature", "properties": { "city": "chongqing", "candidate_source": "place_village_hamlet_locality", "id": "9740672007", "osm_type": "node", "place": "village", "landuse": "None", "residential": "None", "name": "None" }, "geometry": { "type": "Point", "coordinates": [ 106.355934143066406, 29.402149200439453 ] } },
{ "type": "Feature", "properties": { "city": "chongqing", "candidate_source": "place_village_hamlet_locality", "id": "9740672006", "osm_type": "node", "place": "village", "landuse": "None", "residential": "None", "name": "None" }, "geometry": { "type": "Point", "coordinates": [ 106.336616516113281, 29.427146911621094 ] } },
{ "type": "Feature", "properties": { "city": "chongqing", "candidate_source": "place_village_hamlet_locality", "id": "4143867010", "osm_type": "node", "place": "locality", "landuse": "None", "residential": "None", "name": "None" }, "geometry": { "type": "Point", "coordinates": [ 106.525856018066406, 29.550443649291992 ] } },
{ "type": "Feature", "properties": { "city": "chongqing", "candidate_source": "place_village_hamlet_locality", "id": "11342415067", "osm_type": "node", "place": "hamlet", "landuse": "None", "residential": "None", "name": "None" }, "geometry": { "type": "Point", "coordinates": [ 106.47894287109375, 29.553354263305664 ] } },
{ "type": "Feature", "properties": { "city": "chongqing", "candidate_source": "place_village_hamlet_locality", "id": "11802301112", "osm_type": "node", "place": "locality", "landuse": "None", "residential": "None", "name": "None" }, "geometry": { "type": "Point", "coordinates": [ 106.350936889648438, 29.576881408691406 ] } },
{ "type": "Feature", "properties": { "city": "chongqing", "candidate_source": "place_village_hamlet_locality", "id": "11675858729", "osm_type": "node", "place": "locality", "landuse": "None", "residential": "None", "name": "None" }, "geometry": { "type": "Point", "coordinates": [ 106.451286315917969, 29.600236892700195 ] } },
{ "type": "Feature", "properties": { "city": "chongqing", "candidate_source": "place_village_hamlet_locality", "id": "9763168343", "osm_type": "node", "place": "village", "landuse": "None", "residential": "None", "name": "None" }, "geometry": { "type": "Point", "coordinates": [ 106.748489379882812, 29.561540603637695 ] } },
{ "type": "Feature", "properties": { "city": "chongqing", "candidate_source": "place_village_hamlet_locality", "id": "9763168342", "osm_type": "node", "place": "village", "landuse": "None", "residential": "None", "name": "None" }, "geometry": { "type": "Point", "coordinates": [ 106.7353515625, 29.56776237487793 ] } },
{ "type": "Feature", "properties": { "city": "chongqing", "candidate_source": "place_village_hamlet_locality", "id": "9763168344", "osm_type": "node", "place": "village", "landuse": "None", "residential": "None", "name": "None" }, "geometry": { "type": "Point", "coordinates": [ 106.757240295410156, 29.568202972412109 ] } },
{ "type": "Feature", "properties": { "city": "chongqing", "candidate_source": "place_village_hamlet_locality", "id": "9763168341", "osm_type": "node", "place": "village", "landuse": "None", "residential": "None", "name": "None" }, "geometry": { "type": "Point", "coordinates": [ 106.751884460449219, 29.576519012451172 ] } },
{ "type": "Feature", "properties": { "city": "chongqing", "candidate_source": "place_village_hamlet_locality", "id": "9763168340", "osm_type": "node", "place": "village", "landuse": "None", "residential": "None", "name": "None" }, "geometry": { "type": "Point", "coordinates": [ 106.754150390625, 29.582509994506836 ] } },
{ "type": "Feature", "properties": { "city": "chongqing", "candidate_source": "place_village_hamlet_locality", "id": "9763168337", "osm_type": "node", "place": "village", "landuse": "None", "residential": "None", "name": "None" }, "geometry": { "type": "Point", "coordinates": [ 106.742340087890625, 29.582941055297852 ] } },
{ "type": "Feature", "properties": { "city": "chongqing", "candidate_source": "place_village_hamlet_locality", "id": "9763168345", "osm_type": "node", "place": "village", "landuse": "None", "residential": "None", "name": "None" }, "geometry": { "type": "Point", "coordinates": [ 106.771987915039062, 29.594724655151367 ] } },
{ "type": "Feature", "properties": { "city": "chongqing", "candidate_source": "place_village_hamlet_locality", "id": "9763168339", "osm_type": "node", "place": "village", "landuse": "None", "residential": "None", "name": "None" }, "geometry": { "type": "Point", "coordinates": [ 106.772483825683594, 29.596418380737305 ] } },
{ "type": "Feature", "properties": { "city": "chongqing", "candidate_source": "place_village_hamlet_locality", "id": "8081494564", "osm_type": "node", "place": "hamlet", "landuse": "None", "residential": "None", "name": "None" }, "geometry": { "type": "Point", "coordinates": [ 106.831794738769531, 29.596641540527344 ] } },
{ "type": "Feature", "properties": { "city": "chongqing", "candidate_source": "place_village_hamlet_locality", "id": "9763168336", "osm_type": "node", "place": "village", "landuse": "None", "residential": "None", "name": "None" }, "geometry": { "type": "Point", "coordinates": [ 106.774803161621094, 29.599029541015625 ] } },
{ "type": "Feature", "properties": { "city": "chongqing", "candidate_source": "place_village_hamlet_locality", "id": "9763168338", "osm_type": "node", "place": "village", "landuse": "None", "residential": "None", "name": "None" }, "geometry": { "type": "Point", "coordinates": [ 106.775405883789062, 29.600439071655273 ] } },
{ "type": "Feature", "properties": { "city": "chongqing", "candidate_source": "place_village_hamlet_locality", "id": "9667478798", "osm_type": "node", "place": "village", "landuse": "None", "residential": "None", "name": "None" }, "geometry": { "type": "Point", "coordinates": [ 106.802772521972656, 29.616249084472656 ] } },
{ "type": "Feature", "properties": { "city": "chongqing", "candidate_source": "place_village_hamlet_locality", "id": "13071010767", "osm_type": "node", "place": "village", "landuse": "None", "residential": "None", "name": "None" }, "geometry": { "type": "Point", "coordinates": [ 106.8427734375, 29.627578735351562 ] } },
{ "type": "Feature", "properties": { "city": "chongqing", "candidate_source": "place_village_hamlet_locality", "id": "9402347174", "osm_type": "node", "place": "locality", "landuse": "None", "residential": "None", "name": "None" }, "geometry": { "type": "Point", "coordinates": [ 106.567527770996094, 29.553817749023438 ] } },
{ "type": "Feature", "properties": { "city": "chongqing", "candidate_source": "place_village_hamlet_locality", "id": "9386074217", "osm_type": "node", "place": "locality", "landuse": "None", "residential": "None", "name": "None" }, "geometry": { "type": "Point", "coordinates": [ 106.569999694824219, 29.555435180664062 ] } },
{ "type": "Feature", "properties": { "city": "chongqing", "candidate_source": "place_village_hamlet_locality", "id": "2562285280", "osm_type": "node", "place": "locality", "landuse": "None", "residential": "None", "name": "None" }, "geometry": { "type": "Point", "coordinates": [ 106.606880187988281, 29.560436248779297 ] } },
{ "type": "Feature", "properties": { "city": "chongqing", "candidate_source": "place_village_hamlet_locality", "id": "5860938784", "osm_type": "node", "place": "locality", "landuse": "None", "residential": "None", "name": "None" }, "geometry": { "type": "Point", "coordinates": [ 106.584373474121094, 29.570501327514648 ] } },
{ "type": "Feature", "properties": { "city": "chongqing", "candidate_source": "place_village_hamlet_locality", "id": "11672934790", "osm_type": "node", "place": "locality", "landuse": "None", "residential": "None", "name": "None" }, "geometry": { "type": "Point", "coordinates": [ 106.567604064941406, 29.611602783203125 ] } },
{ "type": "Feature", "properties": { "city": "chongqing", "candidate_source": "place_village_hamlet_locality", "id": "10003728150", "osm_type": "node", "place": "village", "landuse": "None", "residential": "None", "name": "None" }, "geometry": { "type": "Point", "coordinates": [ 106.385009765625, 29.623796463012695 ] } },
{ "type": "Feature", "properties": { "city": "chongqing", "candidate_source": "place_village_hamlet_locality", "id": "9952958812", "osm_type": "node", "place": "village", "landuse": "None", "residential": "None", "name": "None" }, "geometry": { "type": "Point", "coordinates": [ 106.333984375, 29.631908416748047 ] } },
{ "type": "Feature", "properties": { "city": "chongqing", "candidate_source": "place_village_hamlet_locality", "id": "10003728145", "osm_type": "node", "place": "village", "landuse": "None", "residential": "None", "name": "None" }, "geometry": { "type": "Point", "coordinates": [ 106.370506286621094, 29.633777618408203 ] } },
{ "type": "Feature", "properties": { "city": "chongqing", "candidate_source": "place_village_hamlet_locality", "id": "9952958816", "osm_type": "node", "place": "village", "landuse": "None", "residential": "None", "name": "None" }, "geometry": { "type": "Point", "coordinates": [ 106.330635070800781, 29.644296646118164 ] } },
{ "type": "Feature", "properties": { "city": "chongqing", "candidate_source": "place_village_hamlet_locality", "id": "4362290091", "osm_type": "node", "place": "locality", "landuse": "None", "residential": "None", "name": "None" }, "geometry": { "type": "Point", "coordinates": [ 106.381553649902344, 29.724786758422852 ] } },
{ "type": "Feature", "properties": { "city": "chongqing", "candidate_source": "place_village_hamlet_locality", "id": "9660145377", "osm_type": "node", "place": "village", "landuse": "None", "residential": "None", "name": "None" }, "geometry": { "type": "Point", "coordinates": [ 106.309295654296875, 29.264350891113281 ] } },
{ "type": "Feature", "properties": { "city": "chongqing", "candidate_source": "place_village_hamlet_locality", "id": "9660145376", "osm_type": "node", "place": "village", "landuse": "None", "residential": "None", "name": "None" }, "geometry": { "type": "Point", "coordinates": [ 106.303955078125, 29.274200439453125 ] } },
{ "type": "Feature", "properties": { "city": "chongqing", "candidate_source": "place_village_hamlet_locality", "id": "9660145375", "osm_type": "node", "place": "village", "landuse": "None", "residential": "None", "name": "None" }, "geometry": { "type": "Point", "coordinates": [ 106.323417663574219, 29.297645568847656 ] } },
{ "type": "Feature", "properties": { "city": "chongqing", "candidate_source": "place_village_hamlet_locality", "id": "9753324058", "osm_type": "node", "place": "village", "landuse": "None", "residential": "None", "name": "None" }, "geometry": { "type": "Point", "coordinates": [ 106.324531555175781, 29.300315856933594 ] } },
{ "type": "Feature", "properties": { "city": "chongqing", "candidate_source": "place_village_hamlet_locality", "id": "9660145370", "osm_type": "node", "place": "village", "landuse": "None", "residential": "None", "name": "None" }, "geometry": { "type": "Point", "coordinates": [ 106.301895141601562, 29.30034065246582 ] } },
{ "type": "Feature", "properties": { "city": "chongqing", "candidate_source": "place_village_hamlet_locality", "id": "9660145369", "osm_type": "node", "place": "village", "landuse": "None", "residential": "None", "name": "None" }, "geometry": { "type": "Point", "coordinates": [ 106.310714721679688, 29.314023971557617 ] } },
{ "type": "Feature", "properties": { "city": "chongqing", "candidate_source": "place_village_hamlet_locality", "id": "9660145368", "osm_type": "node", "place": "village", "landuse": "None", "residential": "None", "name": "None" }, "geometry": { "type": "Point", "coordinates": [ 106.289421081542969, 29.324647903442383 ] } },
{ "type": "Feature", "properties": { "city": "chongqing", "candidate_source": "place_village_hamlet_locality", "id": "9660145367", "osm_type": "node", "place": "village", "landuse": "None", "residential": "None", "name": "None" }, "geometry": { "type": "Point", "coordinates": [ 106.320144653320312, 29.337448120117188 ] } },
{ "type": "Feature", "properties": { "city": "chongqing", "candidate_source": "place_village_hamlet_locality", "id": "9660145362", "osm_type": "node", "place": "village", "landuse": "None", "residential": "None", "name": "None" }, "geometry": { "type": "Point", "coordinates": [ 106.289970397949219, 29.340059280395508 ] } },
{ "type": "Feature", "properties": { "city": "chongqing", "candidate_source": "place_village_hamlet_locality", "id": "9660145364", "osm_type": "node", "place": "village", "landuse": "None", "residential": "None", "name": "None" }, "geometry": { "type": "Point", "coordinates": [ 106.327995300292969, 29.344139099121094 ] } },
{ "type": "Feature", "properties": { "city": "chongqing", "candidate_source": "place_village_hamlet_locality", "id": "9662166908", "osm_type": "node", "place": "village", "landuse": "None", "residential": "None", "name": "None" }, "geometry": { "type": "Point", "coordinates": [ 106.367080688476562, 29.28721809387207 ] } },
{ "type": "Feature", "properties": { "city": "chongqing", "candidate_source": "place_village_hamlet_locality", "id": "9660145374", "osm_type": "node", "place": "village", "landuse": "None", "residential": "None", "name": "None" }, "geometry": { "type": "Point", "coordinates": [ 106.332084655761719, 29.290058135986328 ] } },
{ "type": "Feature", "properties": { "city": "chongqing", "candidate_source": "place_village_hamlet_locality", "id": "9660145373", "osm_type": "node", "place": "village", "landuse": "None", "residential": "None", "name": "None" }, "geometry": { "type": "Point", "coordinates": [ 106.341239929199219, 29.299076080322266 ] } },
{ "type": "Feature", "properties": { "city": "chongqing", "candidate_source": "place_village_hamlet_locality", "id": "9662166909", "osm_type": "node", "place": "village", "landuse": "None", "residential": "None", "name": "None" }, "geometry": { "type": "Point", "coordinates": [ 106.381805419921875, 29.299161911010742 ] } },
{ "type": "Feature", "properties": { "city": "chongqing", "candidate_source": "place_village_hamlet_locality", "id": "9660145372", "osm_type": "node", "place": "village", "landuse": "None", "residential": "None", "name": "None" }, "geometry": { "type": "Point", "coordinates": [ 106.332160949707031, 29.3092041015625 ] } },
{ "type": "Feature", "properties": { "city": "chongqing", "candidate_source": "place_village_hamlet_locality", "id": "9662166910", "osm_type": "node", "place": "village", "landuse": "None", "residential": "None", "name": "None" }, "geometry": { "type": "Point", "coordinates": [ 106.36431884765625, 29.311601638793945 ] } },
{ "type": "Feature", "properties": { "city": "chongqing", "candidate_source": "place_village_hamlet_locality", "id": "9662166911", "osm_type": "node", "place": "village", "landuse": "None", "residential": "None", "name": "None" }, "geometry": { "type": "Point", "coordinates": [ 106.36798095703125, 29.322896957397461 ] } },
{ "type": "Feature", "properties": { "city": "chongqing", "candidate_source": "place_village_hamlet_locality", "id": "9660145371", "osm_type": "node", "place": "village", "landuse": "None", "residential": "None", "name": "None" }, "geometry": { "type": "Point", "coordinates": [ 106.338645935058594, 29.326885223388672 ] } },
{ "type": "Feature", "properties": { "city": "chongqing", "candidate_source": "place_village_hamlet_locality", "id": "9662166913", "osm_type": "node", "place": "village", "landuse": "None", "residential": "None", "name": "None" }, "geometry": { "type": "Point", "coordinates": [ 106.374656677246094, 29.329261779785156 ] } },
{ "type": "Feature", "properties": { "city": "chongqing", "candidate_source": "place_village_hamlet_locality", "id": "9660145366", "osm_type": "node", "place": "village", "landuse": "None", "residential": "None", "name": "None" }, "geometry": { "type": "Point", "coordinates": [ 106.338569641113281, 29.341156005859375 ] } },
{ "type": "Feature", "properties": { "city": "chongqing", "candidate_source": "place_village_hamlet_locality", "id": "9662166914", "osm_type": "node", "place": "village", "landuse": "None", "residential": "None", "name": "None" }, "geometry": { "type": "Point", "coordinates": [ 106.378021240234375, 29.341203689575195 ] } },
{ "type": "Feature", "properties": { "city": "chongqing", "candidate_source": "place_village_hamlet_locality", "id": "9662166912", "osm_type": "node", "place": "village", "landuse": "None", "residential": "None", "name": "None" }, "geometry": { "type": "Point", "coordinates": [ 106.355064392089844, 29.343151092529297 ] } },
{ "type": "Feature", "properties": { "city": "chongqing", "candidate_source": "place_village_hamlet_locality", "id": "9736185454", "osm_type": "node", "place": "village", "landuse": "None", "residential": "None", "name": "None" }, "geometry": { "type": "Point", "coordinates": [ 106.348876953125, 29.351715087890625 ] } },
{ "type": "Feature", "properties": { "city": "chongqing", "candidate_source": "place_village_hamlet_locality", "id": "9660145365", "osm_type": "node", "place": "village", "landuse": "None", "residential": "None", "name": "None" }, "geometry": { "type": "Point", "coordinates": [ 106.328201293945312, 29.353761672973633 ] } },
{ "type": "Feature", "properties": { "city": "chongqing", "candidate_source": "place_village_hamlet_locality", "id": "9736185443", "osm_type": "node", "place": "village", "landuse": "None", "residential": "None", "name": "None" }, "geometry": { "type": "Point", "coordinates": [ 106.344490051269531, 29.362489700317383 ] } },
{ "type": "Feature", "properties": { "city": "chongqing", "candidate_source": "place_village_hamlet_locality", "id": "9736185451", "osm_type": "node", "place": "village", "landuse": "None", "residential": "None", "name": "None" }, "geometry": { "type": "Point", "coordinates": [ 106.328231811523438, 29.365310668945312 ] } },
{ "type": "Feature", "properties": { "city": "chongqing", "candidate_source": "place_village_hamlet_locality", "id": "9736185450", "osm_type": "node", "place": "village", "landuse": "None", "residential": "None", "name": "None" }, "geometry": { "type": "Point", "coordinates": [ 106.350799560546875, 29.368253707885742 ] } },
{ "type": "Feature", "properties": { "city": "chongqing", "candidate_source": "place_village_hamlet_locality", "id": "9736185456", "osm_type": "node", "place": "village", "landuse": "None", "residential": "None", "name": "None" }, "geometry": { "type": "Point", "coordinates": [ 106.362632751464844, 29.373071670532227 ] } },
{ "type": "Feature", "properties": { "city": "chongqing", "candidate_source": "place_village_hamlet_locality", "id": "9660145363", "osm_type": "node", "place": "village", "landuse": "None", "residential": "None", "name": "None" }, "geometry": { "type": "Point", "coordinates": [ 106.284278869628906, 29.331472396850586 ] } },
{ "type": "Feature", "properties": { "city": "chongqing", "candidate_source": "place_village_hamlet_locality", "id": "9660145361", "osm_type": "node", "place": "village", "landuse": "None", "residential": "None", "name": "None" }, "geometry": { "type": "Point", "coordinates": [ 106.268844604492188, 29.342283248901367 ] } },
{ "type": "Feature", "properties": { "city": "chongqing", "candidate_source": "place_village_hamlet_locality", "id": "9660145356", "osm_type": "node", "place": "village", "landuse": "None", "residential": "None", "name": "None" }, "geometry": { "type": "Point", "coordinates": [ 106.285224914550781, 29.377998352050781 ] } },
{ "type": "Feature", "properties": { "city": "chongqing", "candidate_source": "place_village_hamlet_locality", "id": "9660145360", "osm_type": "node", "place": "village", "landuse": "None", "residential": "None", "name": "None" }, "geometry": { "type": "Point", "coordinates": [ 106.287734985351562, 29.351192474365234 ] } },
{ "type": "Feature", "properties": { "city": "chongqing", "candidate_source": "place_village_hamlet_locality", "id": "9660145359", "osm_type": "node", "place": "village", "landuse": "None", "residential": "None", "name": "None" }, "geometry": { "type": "Point", "coordinates": [ 106.320053100585938, 29.360252380371094 ] } },
{ "type": "Feature", "properties": { "city": "chongqing", "candidate_source": "place_village_hamlet_locality", "id": "9660145357", "osm_type": "node", "place": "village", "landuse": "None", "residential": "None", "name": "None" }, "geometry": { "type": "Point", "coordinates": [ 106.292831420898438, 29.364559173583984 ] } },
{ "type": "Feature", "properties": { "city": "chongqing", "candidate_source": "place_village_hamlet_locality", "id": "9660145358", "osm_type": "node", "place": "village", "landuse": "None", "residential": "None", "name": "None" }, "geometry": { "type": "Point", "coordinates": [ 106.299369812011719, 29.37211799621582 ] } },
{ "type": "Feature", "properties": { "city": "chongqing", "candidate_source": "place_village_hamlet_locality", "id": "9736185457", "osm_type": "node", "place": "village", "landuse": "None", "residential": "None", "name": "None" }, "geometry": { "type": "Point", "coordinates": [ 106.317375183105469, 29.382497787475586 ] } },
{ "type": "Feature", "properties": { "city": "chongqing", "candidate_source": "place_village_hamlet_locality", "id": "9740672008", "osm_type": "node", "place": "village", "landuse": "None", "residential": "None", "name": "None" }, "geometry": { "type": "Point", "coordinates": [ 106.328163146972656, 29.399568557739258 ] } },
{ "type": "Feature", "properties": { "city": "chongqing", "candidate_source": "place_village_hamlet_locality", "id": "9740672004", "osm_type": "node", "place": "village", "landuse": "None", "residential": "None", "name": "None" }, "geometry": { "type": "Point", "coordinates": [ 106.32464599609375, 29.421529769897461 ] } },
{ "type": "Feature", "properties": { "city": "chongqing", "candidate_source": "place_village_hamlet_locality", "id": "9740672005", "osm_type": "node", "place": "village", "landuse": "None", "residential": "None", "name": "None" }, "geometry": { "type": "Point", "coordinates": [ 106.319107055664062, 29.434417724609375 ] } },
{ "type": "Feature", "properties": { "city": "chongqing", "candidate_source": "place_village_hamlet_locality", "id": "4715396498", "osm_type": "node", "place": "village", "landuse": "None", "residential": "None", "name": "None" }, "geometry": { "type": "Point", "coordinates": [ 106.290367126464844, 29.462299346923828 ] } },
{ "type": "Feature", "properties": { "city": "chongqing", "candidate_source": "place_village_hamlet_locality", "id": "13593383767", "osm_type": "node", "place": "village", "landuse": "None", "residential": "None", "name": "None" }, "geometry": { "type": "Point", "coordinates": [ 106.305610656738281, 29.49415397644043 ] } },
{ "type": "Feature", "properties": { "city": "chongqing", "candidate_source": "place_village_hamlet_locality", "id": "12241557899", "osm_type": "node", "place": "locality", "landuse": "None", "residential": "None", "name": "None" }, "geometry": { "type": "Point", "coordinates": [ 106.267318725585938, 29.492988586425781 ] } },
{ "type": "Feature", "properties": { "city": "chongqing", "candidate_source": "place_village_hamlet_locality", "id": "12345981194", "osm_type": "node", "place": "locality", "landuse": "None", "residential": "None", "name": "None" }, "geometry": { "type": "Point", "coordinates": [ 106.261016845703125, 29.498634338378906 ] } },
{ "type": "Feature", "properties": { "city": "chongqing", "candidate_source": "place_village_hamlet_locality", "id": "12199025816", "osm_type": "node", "place": "locality", "landuse": "None", "residential": "None", "name": "None" }, "geometry": { "type": "Point", "coordinates": [ 106.261756896972656, 29.501787185668945 ] } },
{ "type": "Feature", "properties": { "city": "chongqing", "candidate_source": "place_village_hamlet_locality", "id": "12199006576", "osm_type": "node", "place": "hamlet", "landuse": "None", "residential": "None", "name": "None" }, "geometry": { "type": "Point", "coordinates": [ 106.266220092773438, 29.522417068481445 ] } },
{ "type": "Feature", "properties": { "city": "chongqing", "candidate_source": "place_village_hamlet_locality", "id": "13593383764", "osm_type": "node", "place": "village", "landuse": "None", "residential": "None", "name": "None" }, "geometry": { "type": "Point", "coordinates": [ 106.279548645019531, 29.524404525756836 ] } },
{ "type": "Feature", "properties": { "city": "chongqing", "candidate_source": "place_village_hamlet_locality", "id": "12197046004", "osm_type": "node", "place": "hamlet", "landuse": "None", "residential": "None", "name": "None" }, "geometry": { "type": "Point", "coordinates": [ 106.271377563476562, 29.545803070068359 ] } },
{ "type": "Feature", "properties": { "city": "chongqing", "candidate_source": "place_village_hamlet_locality", "id": "12194625381", "osm_type": "node", "place": "locality", "landuse": "None", "residential": "None", "name": "None" }, "geometry": { "type": "Point", "coordinates": [ 106.249191284179688, 29.547695159912109 ] } },
{ "type": "Feature", "properties": { "city": "chongqing", "candidate_source": "place_village_hamlet_locality", "id": "12165747701", "osm_type": "node", "place": "hamlet", "landuse": "None", "residential": "None", "name": "None" }, "geometry": { "type": "Point", "coordinates": [ 106.274665832519531, 29.570383071899414 ] } },
{ "type": "Feature", "properties": { "city": "chongqing", "candidate_source": "place_village_hamlet_locality", "id": "13593383765", "osm_type": "node", "place": "village", "landuse": "None", "residential": "None", "name": "None" }, "geometry": { "type": "Point", "coordinates": [ 106.288955688476562, 29.50636100769043 ] } },
{ "type": "Feature", "properties": { "city": "chongqing", "candidate_source": "place_village_hamlet_locality", "id": "13593383766", "osm_type": "node", "place": "village", "landuse": "None", "residential": "None", "name": "None" }, "geometry": { "type": "Point", "coordinates": [ 106.29461669921875, 29.512317657470703 ] } },
{ "type": "Feature", "properties": { "city": "chongqing", "candidate_source": "place_village_hamlet_locality", "id": "13593383768", "osm_type": "node", "place": "village", "landuse": "None", "residential": "None", "name": "None" }, "geometry": { "type": "Point", "coordinates": [ 106.312492370605469, 29.51899528503418 ] } },
{ "type": "Feature", "properties": { "city": "chongqing", "candidate_source": "place_village_hamlet_locality", "id": "13593383762", "osm_type": "node", "place": "village", "landuse": "None", "residential": "None", "name": "None" }, "geometry": { "type": "Point", "coordinates": [ 106.314910888671875, 29.533740997314453 ] } },
{ "type": "Feature", "properties": { "city": "chongqing", "candidate_source": "place_village_hamlet_locality", "id": "13593383763", "osm_type": "node", "place": "village", "landuse": "None", "residential": "None", "name": "None" }, "geometry": { "type": "Point", "coordinates": [ 106.300178527832031, 29.53538703918457 ] } },
{ "type": "Feature", "properties": { "city": "chongqing", "candidate_source": "place_village_hamlet_locality", "id": "11465614450", "osm_type": "node", "place": "locality", "landuse": "None", "residential": "None", "name": "None" }, "geometry": { "type": "Point", "coordinates": [ 106.292030334472656, 29.632410049438477 ] } },
{ "type": "Feature", "properties": { "city": "chongqing", "candidate_source": "place_village_hamlet_locality", "id": "9952991317", "osm_type": "node", "place": "village", "landuse": "None", "residential": "None", "name": "None" }, "geometry": { "type": "Point", "coordinates": [ 106.305259704589844, 29.635457992553711 ] } },
{ "type": "Feature", "properties": { "city": "chongqing", "candidate_source": "place_village_hamlet_locality", "id": "4144039402", "osm_type": "node", "place": "locality", "landuse": "None", "residential": "None", "name": "None" }, "geometry": { "type": "Point", "coordinates": [ 106.303474426269531, 29.685012817382812 ] } },
{ "type": "Feature", "properties": { "city": "chongqing", "candidate_source": "place_village_hamlet_locality", "id": "11907234022", "osm_type": "node", "place": "locality", "landuse": "None", "residential": "None", "name": "None" }, "geometry": { "type": "Point", "coordinates": [ 106.300888061523438, 29.68818473815918 ] } },
{ "type": "Feature", "properties": { "city": "chongqing", "candidate_source": "place_village_hamlet_locality", "id": "11992182431", "osm_type": "node", "place": "hamlet", "landuse": "None", "residential": "None", "name": "None" }, "geometry": { "type": "Point", "coordinates": [ 106.311752319335938, 29.690231323242188 ] } },
{ "type": "Feature", "properties": { "city": "chongqing", "candidate_source": "place_village_hamlet_locality", "id": "12037776971", "osm_type": "node", "place": "locality", "landuse": "None", "residential": "None", "name": "None" }, "geometry": { "type": "Point", "coordinates": [ 106.263526916503906, 29.571954727172852 ] } },
{ "type": "Feature", "properties": { "city": "chongqing", "candidate_source": "place_village_hamlet_locality", "id": "12165747795", "osm_type": "node", "place": "hamlet", "landuse": "None", "residential": "None", "name": "None" }, "geometry": { "type": "Point", "coordinates": [ 106.270469665527344, 29.574966430664062 ] } },
{ "type": "Feature", "properties": { "city": "chongqing", "candidate_source": "place_village_hamlet_locality", "id": "12037776768", "osm_type": "node", "place": "locality", "landuse": "None", "residential": "None", "name": "None" }, "geometry": { "type": "Point", "coordinates": [ 106.257331848144531, 29.575101852416992 ] } },
{ "type": "Feature", "properties": { "city": "chongqing", "candidate_source": "place_village_hamlet_locality", "id": "12031380308", "osm_type": "node", "place": "locality", "landuse": "None", "residential": "None", "name": "None" }, "geometry": { "type": "Point", "coordinates": [ 106.257499694824219, 29.595113754272461 ] } },
{ "type": "Feature", "properties": { "city": "chongqing", "candidate_source": "place_village_hamlet_locality", "id": "12029522394", "osm_type": "node", "place": "locality", "landuse": "None", "residential": "None", "name": "None" }, "geometry": { "type": "Point", "coordinates": [ 106.262199401855469, 29.608156204223633 ] } },
{ "type": "Feature", "properties": { "city": "chongqing", "candidate_source": "place_village_hamlet_locality", "id": "11459593208", "osm_type": "node", "place": "hamlet", "landuse": "None", "residential": "None", "name": "None" }, "geometry": { "type": "Point", "coordinates": [ 106.281547546386719, 29.638036727905273 ] } },
{ "type": "Feature", "properties": { "city": "chongqing", "candidate_source": "place_village_hamlet_locality", "id": "11459593209", "osm_type": "node", "place": "hamlet", "landuse": "None", "residential": "None", "name": "None" }, "geometry": { "type": "Point", "coordinates": [ 106.286262512207031, 29.64556884765625 ] } },
{ "type": "Feature", "properties": { "city": "chongqing", "candidate_source": "place_village_hamlet_locality", "id": "11459593210", "osm_type": "node", "place": "hamlet", "landuse": "None", "residential": "None", "name": "None" }, "geometry": { "type": "Point", "coordinates": [ 106.28509521484375, 29.646413803100586 ] } },
{ "type": "Feature", "properties": { "city": "chongqing", "candidate_source": "place_village_hamlet_locality", "id": "12041894525", "osm_type": "node", "place": "hamlet", "landuse": "None", "residential": "None", "name": "None" }, "geometry": { "type": "Point", "coordinates": [ 106.284378051757812, 29.65583610534668 ] } },
{ "type": "Feature", "properties": { "city": "chongqing", "candidate_source": "place_village_hamlet_locality", "id": "11881300500", "osm_type": "node", "place": "hamlet", "landuse": "None", "residential": "None", "name": "None" }, "geometry": { "type": "Point", "coordinates": [ 106.28265380859375, 29.68092155456543 ] } },
{ "type": "Feature", "properties": { "city": "chongqing", "candidate_source": "place_village_hamlet_locality", "id": "11913460913", "osm_type": "node", "place": "hamlet", "landuse": "None", "residential": "None", "name": "None" }, "geometry": { "type": "Point", "coordinates": [ 106.296356201171875, 29.692350387573242 ] } },
{ "type": "Feature", "properties": { "city": "chongqing", "candidate_source": "place_village_hamlet_locality", "id": "11990266709", "osm_type": "node", "place": "hamlet", "landuse": "None", "residential": "None", "name": "None" }, "geometry": { "type": "Point", "coordinates": [ 106.312667846679688, 29.710210800170898 ] } },
{ "type": "Feature", "properties": { "city": "chongqing", "candidate_source": "place_village_hamlet_locality", "id": "11916187004", "osm_type": "node", "place": "hamlet", "landuse": "None", "residential": "None", "name": "None" }, "geometry": { "type": "Point", "coordinates": [ 106.301887512207031, 29.721982955932617 ] } },
{ "type": "Feature", "properties": { "city": "chongqing", "candidate_source": "place_village_hamlet_locality", "id": "11916187175", "osm_type": "node", "place": "hamlet", "landuse": "None", "residential": "None", "name": "None" }, "geometry": { "type": "Point", "coordinates": [ 106.31182861328125, 29.73974609375 ] } },
{ "type": "Feature", "properties": { "city": "chongqing", "candidate_source": "place_village_hamlet_locality", "id": "11916187174", "osm_type": "node", "place": "hamlet", "landuse": "None", "residential": "None", "name": "None" }, "geometry": { "type": "Point", "coordinates": [ 106.309684753417969, 29.74003791809082 ] } }
]
}
