{
"type": "FeatureCollection",
"name": "wuhan_candidates",
"crs": { "type": "name", "properties": { "name": "urn:ogc:def:crs:OGC:1.3:CRS84" } },
"features": [
{ "type": "Feature", "properties": { "city": "wuhan", "candidate_source": "place_village_hamlet_locality", "id": "12960822641", "osm_type": "node", "place": "village", "landuse": "None", "residential": "None", "name": "None" }, "geometry": { "type": "Point", "coordinates": [ 114.243545532226562, 30.431804656982422 ] } },
{ "type": "Feature", "properties": { "city": "wuhan", "candidate_source": "residential_rural", "id": "1507587841", "osm_type": "way", "place": "None", "landuse": "residential", "residential": "rural", "name": "None" }, "geometry": { "type": "Polygon", "coordinates": [ [ [ 114.442474365234375, 30.50385856628418 ], [ 114.442573547363281, 30.503803253173828 ], [ 114.4443359375, 30.501001358032227 ], [ 114.444366455078125, 30.500926971435547 ], [ 114.443679809570312, 30.500774383544922 ], [ 114.443031311035156, 30.500631332397461 ], [ 114.442916870117188, 30.501108169555664 ], [ 114.442222595214844, 30.502449035644531 ], [ 114.440963745117188, 30.501888275146484 ], [ 114.44091796875, 30.501995086669922 ], [ 114.440803527832031, 30.501945495605469 ], [ 114.440689086914062, 30.502193450927734 ], [ 114.440658569335938, 30.502243041992188 ], [ 114.4403076171875, 30.502822875976562 ], [ 114.440406799316406, 30.502962112426758 ], [ 114.442398071289062, 30.503839492797852 ], [ 114.442474365234375, 30.50385856628418 ] ] ] } },
{ "type": "Feature", "properties": { "city": "wuhan", "candidate_source": "place_village_hamlet_locality", "id": "8042236155", "osm_type": "node", "place": "locality", "landuse": "None", "residential": "None", "name": "None" }, "geometry": { "type": "Point", "coordinates": [ 114.452644348144531, 30.50897216796875 ] } },
{ "type": "Feature", "properties": { "city": "wuhan", "candidate_source": "place_village_hamlet_locality", "id": "678412203", "osm_type": "way", "place": "village", "landuse": "None", "residential": "None", "name": "None" }, "geometry": { "type": "Polygon", "coordinates": [ [ [ 114.454193115234375, 30.524017333984375 ], [ 114.454383850097656, 30.524152755737305 ], [ 114.454612731933594, 30.524318695068359 ], [ 114.456703186035156, 30.523920059204102 ], [ 114.456550598144531, 30.523448944091797 ], [ 114.456192016601562, 30.523500442504883 ], [ 114.455757141113281, 30.523565292358398 ], [ 114.455734252929688, 30.52349853515625 ], [ 114.457069396972656, 30.522645950317383 ], [ 114.457565307617188, 30.522470474243164 ], [ 114.457382202148438, 30.522247314453125 ], [ 114.457077026367188, 30.522365570068359 ], [ 114.456626892089844, 30.522539138793945 ], [ 114.456062316894531, 30.522493362426758 ], [ 114.455116271972656, 30.523248672485352 ], [ 114.454521179199219, 30.523349761962891 ], [ 114.454574584960938, 30.522821426391602 ], [ 114.455078125, 30.522350311279297 ], [ 114.455543518066406, 30.522165298461914 ], [ 114.455436706542969, 30.521886825561523 ], [ 114.454627990722656, 30.521995544433594 ], [ 114.453994750976562, 30.52178955078125 ], [ 114.45391845703125, 30.521823883056641 ], [ 114.45361328125, 30.521965026855469 ], [ 114.453590393066406, 30.522268295288086 ], [ 114.453102111816406, 30.522411346435547 ], [ 114.453102111816406, 30.522922515869141 ], [ 114.452728271484375, 30.522947311401367 ], [ 114.452751159667969, 30.523380279541016 ], [ 114.452308654785156, 30.523418426513672 ], [ 114.452262878417969, 30.523813247680664 ], [ 114.453117370605469, 30.523866653442383 ], [ 114.454193115234375, 30.524017333984375 ] ] ] } },
{ "type": "Feature", "properties": { "city": "wuhan", "candidate_source": "place_village_hamlet_locality", "id": "693454667", "osm_type": "way", "place": "village", "landuse": "None", "residential": "None", "name": "None" }, "geometry": { "type": "Polygon", "coordinates": [ [ [ 114.442611694335938, 30.525859832763672 ], [ 114.443084716796875, 30.525428771972656 ], [ 114.442611694335938, 30.525226593017578 ], [ 114.442787170410156, 30.524860382080078 ], [ 114.443275451660156, 30.524778366088867 ], [ 114.443344116210938, 30.525022506713867 ], [ 114.443611145019531, 30.525138854980469 ], [ 114.444412231445312, 30.524545669555664 ], [ 114.445404052734375, 30.524347305297852 ], [ 114.44622802734375, 30.523542404174805 ], [ 114.44659423828125, 30.523181915283203 ], [ 114.446708679199219, 30.522077560424805 ], [ 114.446434020996094, 30.521991729736328 ], [ 114.445755004882812, 30.522411346435547 ], [ 114.445838928222656, 30.523044586181641 ], [ 114.445571899414062, 30.523387908935547 ], [ 114.4454345703125, 30.523365020751953 ], [ 114.445419311523438, 30.523044586181641 ], [ 114.444923400878906, 30.522989273071289 ], [ 114.4449462890625, 30.522867202758789 ], [ 114.444694519042969, 30.522769927978516 ], [ 114.444740295410156, 30.522636413574219 ], [ 114.44464111328125, 30.522529602050781 ], [ 114.444091796875, 30.522891998291016 ], [ 114.443901062011719, 30.523231506347656 ], [ 114.442947387695312, 30.523300170898438 ], [ 114.441970825195312, 30.523641586303711 ], [ 114.441841125488281, 30.523885726928711 ], [ 114.441741943359375, 30.524368286132812 ], [ 114.441780090332031, 30.525093078613281 ], [ 114.442085266113281, 30.525053024291992 ], [ 114.442237854003906, 30.525503158569336 ], [ 114.442169189453125, 30.525672912597656 ], [ 114.442611694335938, 30.525859832763672 ] ] ] } },
{ "type": "Feature", "properties": { "city": "wuhan", "candidate_source": "place_village_hamlet_locality", "id": "1223996735", "osm_type": "node", "place": "locality", "landuse": "None", "residential": "None", "name": "None" }, "geometry": { "type": "Point", "coordinates": [ 114.347694396972656, 30.479673385620117 ] } },
{ "type": "Feature", "properties": { "city": "wuhan", "candidate_source": "residential_rural", "id": "999899550", "osm_type": "way", "place": "None", "landuse": "residential", "residential": "rural", "name": "None" }, "geometry": { "type": "Polygon", "coordinates": [ [ [ 114.414642333984375, 30.505945205688477 ], [ 114.414581298828125, 30.505516052246094 ], [ 114.414382934570312, 30.50440788269043 ], [ 114.414291381835938, 30.503314971923828 ], [ 114.412940979003906, 30.5035400390625 ], [ 114.413322448730469, 30.505929946899414 ], [ 114.413352966308594, 30.506114959716797 ], [ 114.414642333984375, 30.505945205688477 ] ] ] } },
{ "type": "Feature", "properties": { "city": "wuhan", "candidate_source": "place_village_hamlet_locality", "id": "10657807418", "osm_type": "node", "place": "locality", "landuse": "None", "residential": "None", "name": "None" }, "geometry": { "type": "Point", "coordinates": [ 114.283866882324219, 30.520792007446289 ] } },
{ "type": "Feature", "properties": { "city": "wuhan", "candidate_source": "place_village_hamlet_locality", "id": "1802899066", "osm_type": "node", "place": "locality", "landuse": "None", "residential": "None", "name": "None" }, "geometry": { "type": "Point", "coordinates": [ 114.395591735839844, 30.521640777587891 ] } },
{ "type": "Feature", "properties": { "city": "wuhan", "candidate_source": "residential_rural", "id": "1135594629", "osm_type": "way", "place": "None", "landuse": "residential", "residential": "rural", "name": "None" }, "geometry": { "type": "Polygon", "coordinates": [ [ [ 114.432586669921875, 30.523591995239258 ], [ 114.433441162109375, 30.524324417114258 ], [ 114.433662414550781, 30.524477005004883 ], [ 114.433792114257812, 30.524692535400391 ], [ 114.434051513671875, 30.524923324584961 ], [ 114.433944702148438, 30.524993896484375 ], [ 114.4342041015625, 30.525434494018555 ], [ 114.434379577636719, 30.525371551513672 ], [ 114.434661865234375, 30.525686264038086 ], [ 114.43487548828125, 30.525545120239258 ], [ 114.435081481933594, 30.525470733642578 ], [ 114.435150146484375, 30.525630950927734 ], [ 114.43499755859375, 30.525686264038086 ], [ 114.435127258300781, 30.525957107543945 ], [ 114.435272216796875, 30.525890350341797 ], [ 114.435203552246094, 30.525732040405273 ], [ 114.435646057128906, 30.525529861450195 ], [ 114.435722351074219, 30.525650024414062 ], [ 114.435920715332031, 30.525547027587891 ], [ 114.436424255371094, 30.525266647338867 ], [ 114.43658447265625, 30.525131225585938 ], [ 114.436660766601562, 30.525047302246094 ], [ 114.436729431152344, 30.524972915649414 ], [ 114.437156677246094, 30.524406433105469 ], [ 114.436820983886719, 30.524311065673828 ], [ 114.436561584472656, 30.524324417114258 ], [ 114.436492919921875, 30.523834228515625 ], [ 114.436203002929688, 30.52385139465332 ], [ 114.435317993164062, 30.522787094116211 ], [ 114.435111999511719, 30.522850036621094 ], [ 114.435028076171875, 30.523082733154297 ], [ 114.434967041015625, 30.523107528686523 ], [ 114.435005187988281, 30.523197174072266 ], [ 114.435096740722656, 30.523427963256836 ], [ 114.435249328613281, 30.523555755615234 ], [ 114.435310363769531, 30.523685455322266 ], [ 114.435310363769531, 30.523714065551758 ], [ 114.435295104980469, 30.523736953735352 ], [ 114.435104370117188, 30.523826599121094 ], [ 114.435035705566406, 30.523843765258789 ], [ 114.43450927734375, 30.523830413818359 ], [ 114.43414306640625, 30.523435592651367 ], [ 114.434059143066406, 30.523086547851562 ], [ 114.434059143066406, 30.523052215576172 ], [ 114.434066772460938, 30.522979736328125 ], [ 114.434074401855469, 30.522954940795898 ], [ 114.434097290039062, 30.522930145263672 ], [ 114.4342041015625, 30.522884368896484 ], [ 114.433853149414062, 30.522117614746094 ], [ 114.433242797851562, 30.521965026855469 ], [ 114.433074951171875, 30.522018432617188 ], [ 114.43310546875, 30.522148132324219 ], [ 114.432861328125, 30.522209167480469 ], [ 114.432624816894531, 30.522357940673828 ], [ 114.432456970214844, 30.522327423095703 ], [ 114.432266235351562, 30.522382736206055 ], [ 114.431732177734375, 30.522285461425781 ], [ 114.431602478027344, 30.522493362426758 ], [ 114.431610107421875, 30.52259635925293 ], [ 114.432586669921875, 30.523591995239258 ] ] ] } },
{ "type": "Feature", "properties": { "city": "wuhan", "candidate_source": "residential_rural", "id": "1127659014", "osm_type": "way", "place": "None", "landuse": "residential", "residential": "rural", "name": "None" }, "geometry": { "type": "Polygon", "coordinates": [ [ [ 114.285591125488281, 30.528060913085938 ], [ 114.285781860351562, 30.528085708618164 ], [ 114.286239624023438, 30.528043746948242 ], [ 114.286163330078125, 30.527462005615234 ], [ 114.2861328125, 30.527315139770508 ], [ 114.286308288574219, 30.526983261108398 ], [ 114.286079406738281, 30.526901245117188 ], [ 114.286666870117188, 30.525659561157227 ], [ 114.286796569824219, 30.525424957275391 ], [ 114.286506652832031, 30.525325775146484 ], [ 114.286628723144531, 30.525127410888672 ], [ 114.286735534667969, 30.5250244140625 ], [ 114.286735534667969, 30.524969100952148 ], [ 114.286796569824219, 30.524835586547852 ], [ 114.286766052246094, 30.524639129638672 ], [ 114.286628723144531, 30.52440071105957 ], [ 114.286399841308594, 30.523969650268555 ], [ 114.286079406738281, 30.52415657043457 ], [ 114.286079406738281, 30.524351119995117 ], [ 114.285942077636719, 30.524511337280273 ], [ 114.285980224609375, 30.524789810180664 ], [ 114.285873413085938, 30.524785995483398 ], [ 114.285614013671875, 30.524862289428711 ], [ 114.285659790039062, 30.525012969970703 ], [ 114.28570556640625, 30.525154113769531 ], [ 114.285774230957031, 30.525129318237305 ], [ 114.285789489746094, 30.525224685668945 ], [ 114.285888671875, 30.525217056274414 ], [ 114.28594970703125, 30.52513313293457 ], [ 114.286201477050781, 30.525177001953125 ], [ 114.286201477050781, 30.525257110595703 ], [ 114.285995483398438, 30.525323867797852 ], [ 114.285804748535156, 30.525449752807617 ], [ 114.285560607910156, 30.525476455688477 ], [ 114.285453796386719, 30.525436401367188 ], [ 114.285400390625, 30.525251388549805 ], [ 114.285507202148438, 30.525142669677734 ], [ 114.285484313964844, 30.525003433227539 ], [ 114.285354614257812, 30.525009155273438 ], [ 114.284828186035156, 30.525129318237305 ], [ 114.284896850585938, 30.525396347045898 ], [ 114.28485107421875, 30.525606155395508 ], [ 114.284965515136719, 30.526027679443359 ], [ 114.285110473632812, 30.526571273803711 ], [ 114.285118103027344, 30.52668571472168 ], [ 114.285118103027344, 30.526872634887695 ], [ 114.285087585449219, 30.526884078979492 ], [ 114.285018920898438, 30.527065277099609 ], [ 114.285026550292969, 30.527212142944336 ], [ 114.285049438476562, 30.527341842651367 ], [ 114.28509521484375, 30.527511596679688 ], [ 114.284797668457031, 30.527589797973633 ], [ 114.284866333007812, 30.527736663818359 ], [ 114.28472900390625, 30.527816772460938 ], [ 114.28485107421875, 30.528091430664062 ], [ 114.285026550292969, 30.528072357177734 ], [ 114.28509521484375, 30.528192520141602 ], [ 114.28546142578125, 30.528064727783203 ], [ 114.285591125488281, 30.528060913085938 ] ] ] } },
{ "type": "Feature", "properties": { "city": "wuhan", "candidate_source": "place_village_hamlet_locality", "id": "697064985", "osm_type": "way", "place": "village", "landuse": "None", "residential": "None", "name": "None" }, "geometry": { "type": "Polygon", "coordinates": [ [ [ 114.402488708496094, 30.528879165649414 ], [ 114.403488159179688, 30.528127670288086 ], [ 114.402328491210938, 30.527742385864258 ], [ 114.400947570800781, 30.527420043945312 ], [ 114.399742126464844, 30.526809692382812 ], [ 114.399299621582031, 30.526521682739258 ], [ 114.399215698242188, 30.527721405029297 ], [ 114.397796630859375, 30.528392791748047 ], [ 114.396751403808594, 30.528423309326172 ], [ 114.395683288574219, 30.528633117675781 ], [ 114.395553588867188, 30.529014587402344 ], [ 114.39581298828125, 30.52899169921875 ], [ 114.395835876464844, 30.529048919677734 ], [ 114.395919799804688, 30.529577255249023 ], [ 114.396232604980469, 30.529863357543945 ], [ 114.396537780761719, 30.529996871948242 ], [ 114.396957397460938, 30.530017852783203 ], [ 114.397430419921875, 30.531000137329102 ], [ 114.397514343261719, 30.531318664550781 ], [ 114.398101806640625, 30.531414031982422 ], [ 114.398208618164062, 30.531538009643555 ], [ 114.398330688476562, 30.531488418579102 ], [ 114.398681640625, 30.531417846679688 ], [ 114.399093627929688, 30.531440734863281 ], [ 114.399360656738281, 30.531562805175781 ], [ 114.399688720703125, 30.531112670898438 ], [ 114.399948120117188, 30.531057357788086 ], [ 114.400260925292969, 30.530927658081055 ], [ 114.402488708496094, 30.528879165649414 ] ] ] } },
{ "type": "Feature", "properties": { "city": "wuhan", "candidate_source": "place_village_hamlet_locality", "id": "1234371932", "osm_type": "node", "place": "village", "landuse": "None", "residential": "None", "name": "None" }, "geometry": { "type": "Point", "coordinates": [ 114.586074829101562, 30.501419067382812 ] } },
{ "type": "Feature", "properties": { "city": "wuhan", "candidate_source": "place_village_hamlet_locality", "id": "1234373763", "osm_type": "node", "place": "village", "landuse": "None", "residential": "None", "name": "None" }, "geometry": { "type": "Point", "coordinates": [ 114.584602355957031, 30.503110885620117 ] } },
{ "type": "Feature", "properties": { "city": "wuhan", "candidate_source": "place_village_hamlet_locality", "id": "2477288348", "osm_type": "node", "place": "village", "landuse": "None", "residential": "None", "name": "None" }, "geometry": { "type": "Point", "coordinates": [ 114.584556579589844, 30.552953720092773 ] } },
{ "type": "Feature", "properties": { "city": "wuhan", "candidate_source": "place_village_hamlet_locality", "id": "2477288345", "osm_type": "node", "place": "village", "landuse": "None", "residential": "None", "name": "None" }, "geometry": { "type": "Point", "coordinates": [ 114.578964233398438, 30.559032440185547 ] } },
{ "type": "Feature", "properties": { "city": "wuhan", "candidate_source": "place_village_hamlet_locality", "id": "11296860203", "osm_type": "node", "place": "locality", "landuse": "None", "residential": "None", "name": "None" }, "geometry": { "type": "Point", "coordinates": [ 114.28704833984375, 30.529224395751953 ] } },
{ "type": "Feature", "properties": { "city": "wuhan", "candidate_source": "place_village_hamlet_locality", "id": "1460272924", "osm_type": "node", "place": "locality", "landuse": "None", "residential": "None", "name": "None" }, "geometry": { "type": "Point", "coordinates": [ 114.254463195800781, 30.52998161315918 ] } },
{ "type": "Feature", "properties": { "city": "wuhan", "candidate_source": "place_village_hamlet_locality", "id": "3096817256", "osm_type": "node", "place": "locality", "landuse": "None", "residential": "None", "name": "None" }, "geometry": { "type": "Point", "coordinates": [ 114.393539428710938, 30.531269073486328 ] } },
{ "type": "Feature", "properties": { "city": "wuhan", "candidate_source": "place_village_hamlet_locality", "id": "1460272920", "osm_type": "node", "place": "locality", "landuse": "None", "residential": "None", "name": "None" }, "geometry": { "type": "Point", "coordinates": [ 114.260475158691406, 30.544580459594727 ] } },
{ "type": "Feature", "properties": { "city": "wuhan", "candidate_source": "place_village_hamlet_locality", "id": "1459094329", "osm_type": "node", "place": "locality", "landuse": "None", "residential": "None", "name": "None" }, "geometry": { "type": "Point", "coordinates": [ 114.260154724121094, 30.551200866699219 ] } },
{ "type": "Feature", "properties": { "city": "wuhan", "candidate_source": "place_village_hamlet_locality", "id": "1460272917", "osm_type": "node", "place": "locality", "landuse": "None", "residential": "None", "name": "None" }, "geometry": { "type": "Point", "coordinates": [ 114.242576599121094, 30.554634094238281 ] } },
{ "type": "Feature", "properties": { "city": "wuhan", "candidate_source": "place_village_hamlet_locality", "id": "1460272930", "osm_type": "node", "place": "locality", "landuse": "None", "residential": "None", "name": "None" }, "geometry": { "type": "Point", "coordinates": [ 114.230430603027344, 30.558994293212891 ] } },
{ "type": "Feature", "properties": { "city": "wuhan", "candidate_source": "place_village_hamlet_locality", "id": "13829965869", "osm_type": "node", "place": "locality", "landuse": "None", "residential": "None", "name": "None" }, "geometry": { "type": "Point", "coordinates": [ 114.403335571289062, 30.562219619750977 ] } },
{ "type": "Feature", "properties": { "city": "wuhan", "candidate_source": "place_village_hamlet_locality", "id": "13829965871", "osm_type": "node", "place": "locality", "landuse": "None", "residential": "None", "name": "None" }, "geometry": { "type": "Point", "coordinates": [ 114.401992797851562, 30.562593460083008 ] } },
{ "type": "Feature", "properties": { "city": "wuhan", "candidate_source": "place_village_hamlet_locality", "id": "2477288347", "osm_type": "node", "place": "village", "landuse": "None", "residential": "None", "name": "None" }, "geometry": { "type": "Point", "coordinates": [ 114.572776794433594, 30.563640594482422 ] } },
{ "type": "Feature", "properties": { "city": "wuhan", "candidate_source": "place_village_hamlet_locality", "id": "2477288350", "osm_type": "node", "place": "village", "landuse": "None", "residential": "None", "name": "None" }, "geometry": { "type": "Point", "coordinates": [ 114.534072875976562, 30.547798156738281 ] } },
{ "type": "Feature", "properties": { "city": "wuhan", "candidate_source": "place_village_hamlet_locality", "id": "2477288346", "osm_type": "node", "place": "village", "landuse": "None", "residential": "None", "name": "None" }, "geometry": { "type": "Point", "coordinates": [ 114.546928405761719, 30.554636001586914 ] } },
{ "type": "Feature", "properties": { "city": "wuhan", "candidate_source": "place_village_hamlet_locality", "id": "11337035140", "osm_type": "node", "place": "village", "landuse": "None", "residential": "None", "name": "None" }, "geometry": { "type": "Point", "coordinates": [ 114.448631286621094, 30.580411911010742 ] } },
{ "type": "Feature", "properties": { "city": "wuhan", "candidate_source": "place_village_hamlet_locality", "id": "11337035138", "osm_type": "node", "place": "village", "landuse": "None", "residential": "None", "name": "None" }, "geometry": { "type": "Point", "coordinates": [ 114.461280822753906, 30.583650588989258 ] } },
{ "type": "Feature", "properties": { "city": "wuhan", "candidate_source": "place_village_hamlet_locality", "id": "11337035139", "osm_type": "node", "place": "village", "landuse": "None", "residential": "None", "name": "None" }, "geometry": { "type": "Point", "coordinates": [ 114.475852966308594, 30.587919235229492 ] } },
{ "type": "Feature", "properties": { "city": "wuhan", "candidate_source": "place_village_hamlet_locality", "id": "11337035137", "osm_type": "node", "place": "village", "landuse": "None", "residential": "None", "name": "None" }, "geometry": { "type": "Point", "coordinates": [ 114.458175659179688, 30.595325469970703 ] } },
{ "type": "Feature", "properties": { "city": "wuhan", "candidate_source": "place_village_hamlet_locality", "id": "1459094340", "osm_type": "node", "place": "locality", "landuse": "None", "residential": "None", "name": "None" }, "geometry": { "type": "Point", "coordinates": [ 114.206039428710938, 30.564985275268555 ] } },
{ "type": "Feature", "properties": { "city": "wuhan", "candidate_source": "place_village_hamlet_locality", "id": "13829946662", "osm_type": "node", "place": "hamlet", "landuse": "None", "residential": "None", "name": "None" }, "geometry": { "type": "Point", "coordinates": [ 114.410995483398438, 30.568071365356445 ] } },
{ "type": "Feature", "properties": { "city": "wuhan", "candidate_source": "place_village_hamlet_locality", "id": "13831536542", "osm_type": "node", "place": "hamlet", "landuse": "None", "residential": "None", "name": "None" }, "geometry": { "type": "Point", "coordinates": [ 114.40765380859375, 30.570838928222656 ] } },
{ "type": "Feature", "properties": { "city": "wuhan", "candidate_source": "place_village_hamlet_locality", "id": "1838704686", "osm_type": "node", "place": "locality", "landuse": "None", "residential": "None", "name": "None" }, "geometry": { "type": "Point", "coordinates": [ 114.327926635742188, 30.580156326293945 ] } },
{ "type": "Feature", "properties": { "city": "wuhan", "candidate_source": "place_village_hamlet_locality", "id": "5175969420", "osm_type": "node", "place": "locality", "landuse": "None", "residential": "None", "name": "None" }, "geometry": { "type": "Point", "coordinates": [ 114.2900390625, 30.631782531738281 ] } },
{ "type": "Feature", "properties": { "city": "wuhan", "candidate_source": "place_village_hamlet_locality", "id": "1239713714", "osm_type": "node", "place": "village", "landuse": "None", "residential": "None", "name": "None" }, "geometry": { "type": "Point", "coordinates": [ 114.393333435058594, 30.667724609375 ] } },
{ "type": "Feature", "properties": { "city": "wuhan", "candidate_source": "place_village_hamlet_locality", "id": "1239713712", "osm_type": "node", "place": "village", "landuse": "None", "residential": "None", "name": "None" }, "geometry": { "type": "Point", "coordinates": [ 114.405990600585938, 30.67542839050293 ] } },
{ "type": "Feature", "properties": { "city": "wuhan", "candidate_source": "place_village_hamlet_locality", "id": "11252263338", "osm_type": "node", "place": "locality", "landuse": "None", "residential": "None", "name": "None" }, "geometry": { "type": "Point", "coordinates": [ 114.347366333007812, 30.677398681640625 ] } },
{ "type": "Feature", "properties": { "city": "wuhan", "candidate_source": "place_village_hamlet_locality", "id": "1234371933", "osm_type": "node", "place": "village", "landuse": "None", "residential": "None", "name": "None" }, "geometry": { "type": "Point", "coordinates": [ 114.58697509765625, 30.464395523071289 ] } },
{ "type": "Feature", "properties": { "city": "wuhan", "candidate_source": "place_village_hamlet_locality", "id": "1234371931", "osm_type": "node", "place": "village", "landuse": "None", "residential": "None", "name": "None" }, "geometry": { "type": "Point", "coordinates": [ 114.593360900878906, 30.472969055175781 ] } },
{ "type": "Feature", "properties": { "city": "wuhan", "candidate_source": "place_village_hamlet_locality", "id": "1234371929", "osm_type": "node", "place": "village", "landuse": "None", "residential": "None", "name": "None" }, "geometry": { "type": "Point", "coordinates": [ 114.598289489746094, 30.486173629760742 ] } },
{ "type": "Feature", "properties": { "city": "wuhan", "candidate_source": "place_village_hamlet_locality", "id": "1234373762", "osm_type": "node", "place": "village", "landuse": "None", "residential": "None", "name": "None" }, "geometry": { "type": "Point", "coordinates": [ 114.602668762207031, 30.495824813842773 ] } },
{ "type": "Feature", "properties": { "city": "wuhan", "candidate_source": "place_village_hamlet_locality", "id": "1234371930", "osm_type": "node", "place": "village", "landuse": "None", "residential": "None", "name": "None" }, "geometry": { "type": "Point", "coordinates": [ 114.605125427246094, 30.499052047729492 ] } },
{ "type": "Feature", "properties": { "city": "wuhan", "candidate_source": "place_village_hamlet_locality", "id": "1234360309", "osm_type": "node", "place": "village", "landuse": "None", "residential": "None", "name": "None" }, "geometry": { "type": "Point", "coordinates": [ 114.588829040527344, 30.522909164428711 ] } },
{ "type": "Feature", "properties": { "city": "wuhan", "candidate_source": "place_village_hamlet_locality", "id": "1234360489", "osm_type": "node", "place": "village", "landuse": "None", "residential": "None", "name": "None" }, "geometry": { "type": "Point", "coordinates": [ 114.601608276367188, 30.528247833251953 ] } },
{ "type": "Feature", "properties": { "city": "wuhan", "candidate_source": "place_village_hamlet_locality", "id": "1234360328", "osm_type": "node", "place": "village", "landuse": "None", "residential": "None", "name": "None" }, "geometry": { "type": "Point", "coordinates": [ 114.599594116210938, 30.533266067504883 ] } },
{ "type": "Feature", "properties": { "city": "wuhan", "candidate_source": "place_village_hamlet_locality", "id": "2477288349", "osm_type": "node", "place": "village", "landuse": "None", "residential": "None", "name": "None" }, "geometry": { "type": "Point", "coordinates": [ 114.590286254882812, 30.549468994140625 ] } },
{ "type": "Feature", "properties": { "city": "wuhan", "candidate_source": "place_village_hamlet_locality", "id": "13042797543", "osm_type": "node", "place": "locality", "landuse": "None", "residential": "None", "name": "None" }, "geometry": { "type": "Point", "coordinates": [ 114.612953186035156, 30.460605621337891 ] } },
{ "type": "Feature", "properties": { "city": "wuhan", "candidate_source": "place_village_hamlet_locality", "id": "1234371935", "osm_type": "node", "place": "village", "landuse": "None", "residential": "None", "name": "None" }, "geometry": { "type": "Point", "coordinates": [ 114.611427307128906, 30.467309951782227 ] } },
{ "type": "Feature", "properties": { "city": "wuhan", "candidate_source": "place_village_hamlet_locality", "id": "1234371926", "osm_type": "node", "place": "village", "landuse": "None", "residential": "None", "name": "None" }, "geometry": { "type": "Point", "coordinates": [ 114.624870300292969, 30.490322113037109 ] } },
{ "type": "Feature", "properties": { "city": "wuhan", "candidate_source": "place_village_hamlet_locality", "id": "1234371927", "osm_type": "node", "place": "village", "landuse": "None", "residential": "None", "name": "None" }, "geometry": { "type": "Point", "coordinates": [ 114.621620178222656, 30.53852653503418 ] } },
{ "type": "Feature", "properties": { "city": "wuhan", "candidate_source": "place_village_hamlet_locality", "id": "1234371928", "osm_type": "node", "place": "locality", "landuse": "None", "residential": "None", "name": "None" }, "geometry": { "type": "Point", "coordinates": [ 114.6280517578125, 30.518342971801758 ] } },
{ "type": "Feature", "properties": { "city": "wuhan", "candidate_source": "place_village_hamlet_locality", "id": "1234371934", "osm_type": "node", "place": "village", "landuse": "None", "residential": "None", "name": "None" }, "geometry": { "type": "Point", "coordinates": [ 114.627571105957031, 30.528923034667969 ] } },
{ "type": "Feature", "properties": { "city": "wuhan", "candidate_source": "place_village_hamlet_locality", "id": "1234360671", "osm_type": "node", "place": "village", "landuse": "None", "residential": "None", "name": "None" }, "geometry": { "type": "Point", "coordinates": [ 114.607215881347656, 30.55122184753418 ] } },
{ "type": "Feature", "properties": { "city": "wuhan", "candidate_source": "place_village_hamlet_locality", "id": "1239713713", "osm_type": "node", "place": "village", "landuse": "None", "residential": "None", "name": "None" }, "geometry": { "type": "Point", "coordinates": [ 114.434516906738281, 30.682710647583008 ] } }
]
}
